{"type":"FeatureCollection","features":[{"type":"Feature","properties":{"name":"Cleveland High School","school_label":"Cleveland High School Mandarin Immersion","cluster":"Cleveland","level":"9-12","area_sqmi":13.16},"geometry":{"type":"MultiPolygon","coordinates":[[[[-122.646625,45.455727],[-122.652668,45.455355],[-122.653004,45.45813],[-122.653031,45.458282],[-122.653087,45.458342],[-122.653303,45.4583],[-122.659444,45.457925],[-122.661349,45.457569],[-122.66198,45.458563],[-122.663948,45.461506],[-122.665727,45.46555],[-122.666457,45.471154],[-122.668843,45.48341],[-122.669106,45.484411],[-122.669146,45.484624],[-122.669129,45.484746],[-122.66936,45.485755],[-122.669313,45.487806],[-122.668205,45.491714],[-122.666697,45.495333],[-122.66596,45.499028],[-122.666434,45.501084],[-122.669624,45.50754],[-122.670944,45.513239],[-122.669535,45.517846],[-122.668197,45.520494],[-122.667887,45.52306],[-122.668929,45.527644],[-122.674122,45.531837],[-122.671366,45.533352],[-122.669718,45.53429],[-122.66872,45.534904],[-122.668315,45.535102],[-122.665614,45.535115],[-122.644715,45.535035],[-122.644758,45.530073],[-122.636418,45.530472],[-122.635587,45.530587],[-122.634792,45.530807],[-122.634428,45.530326],[-122.634391,45.530205],[-122.634425,45.524344],[-122.631605,45.524343],[-122.631614,45.522132],[-122.629424,45.522142],[-122.628918,45.522259],[-122.628658,45.522279],[-122.628004,45.522169],[-122.627407,45.522165],[-122.626175,45.522302],[-122.624236,45.522696],[-122.62348,45.522786],[-122.622938,45.522804],[-122.622973,45.519747],[-122.622936,45.519306],[-122.622955,45.518597],[-122.622894,45.51654],[-122.622777,45.516588],[-122.619393,45.516582],[-122.619346,45.516499],[-122.619361,45.515028],[-122.620098,45.515029],[-122.620136,45.512056],[-122.622771,45.512061],[-122.622598,45.505502],[-122.622599,45.500525],[-122.626199,45.500527],[-122.626206,45.49981],[-122.628548,45.499813],[-122.628534,45.499096],[-122.626203,45.499102],[-122.626186,45.497059],[-122.625873,45.49708],[-122.625806,45.496716],[-122.62576,45.496648],[-122.624628,45.496196],[-122.624354,45.496118],[-122.624093,45.496092],[-122.622618,45.496081],[-122.622631,45.493345],[-122.619205,45.49334],[-122.619018,45.493252],[-122.618947,45.493093],[-122.618981,45.490311],[-122.601299,45.490293],[-122.601359,45.485407],[-122.602119,45.485423],[-122.602157,45.483068],[-122.599588,45.483061],[-122.599626,45.480081],[-122.597047,45.480074],[-122.59707,45.479167],[-122.608754,45.479174],[-122.608769,45.475843],[-122.599698,45.475834],[-122.596198,45.47586],[-122.596222,45.46865],[-122.596883,45.468645],[-122.59688,45.467616],[-122.596947,45.465131],[-122.596589,45.465129],[-122.596671,45.461515],[-122.602359,45.461487],[-122.610909,45.461513],[-122.620778,45.461453],[-122.641507,45.461494],[-122.641486,45.459955],[-122.641356,45.45873],[-122.641431,45.458698],[-122.643597,45.458673],[-122.646989,45.458708],[-122.646625,45.455727]]]]}},{"type":"Feature","properties":{"name":"Franklin High School","school_label":"Franklin High School Russian Immersion, Spanish Immersion","cluster":"Franklin","level":"9-12","area_sqmi":8.97},"geometry":{"type":"MultiPolygon","coordinates":[[[[-122.559265,45.464633],[-122.553209,45.464673],[-122.553196,45.461068],[-122.558126,45.461056],[-122.568668,45.461377],[-122.579216,45.461536],[-122.585554,45.461497],[-122.587061,45.461538],[-122.596671,45.461515],[-122.596589,45.465129],[-122.596947,45.465131],[-122.59688,45.467616],[-122.596883,45.468645],[-122.596222,45.46865],[-122.596198,45.47586],[-122.599698,45.475834],[-122.608769,45.475843],[-122.608754,45.479174],[-122.59707,45.479167],[-122.597047,45.480074],[-122.599626,45.480081],[-122.599588,45.483061],[-122.602157,45.483068],[-122.602119,45.485423],[-122.601359,45.485407],[-122.601299,45.490293],[-122.618981,45.490311],[-122.618947,45.493093],[-122.619018,45.493252],[-122.619205,45.49334],[-122.622631,45.493345],[-122.622618,45.496081],[-122.624093,45.496092],[-122.624354,45.496118],[-122.624628,45.496196],[-122.62576,45.496648],[-122.625806,45.496716],[-122.625873,45.49708],[-122.626186,45.497059],[-122.626203,45.499102],[-122.628534,45.499096],[-122.628548,45.499813],[-122.626206,45.49981],[-122.626199,45.500527],[-122.622599,45.500525],[-122.622598,45.505502],[-122.622771,45.512061],[-122.620136,45.512056],[-122.620098,45.515029],[-122.619361,45.515028],[-122.619346,45.516499],[-122.619393,45.516582],[-122.622777,45.516588],[-122.622894,45.51654],[-122.622955,45.518597],[-122.622936,45.519306],[-122.622973,45.519747],[-122.622955,45.521721],[-122.622597,45.52172],[-122.622606,45.521362],[-122.61971,45.521362],[-122.619268,45.521431],[-122.61845,45.521622],[-122.617214,45.521637],[-122.617216,45.521995],[-122.616055,45.521986],[-122.616084,45.523136],[-122.6154,45.523111],[-122.614918,45.52299],[-122.614901,45.523753],[-122.614924,45.524408],[-122.613361,45.524398],[-122.61335,45.524688],[-122.612612,45.524687],[-122.612626,45.525098],[-122.611932,45.525095],[-122.611929,45.524379],[-122.607536,45.524376],[-122.607337,45.524288],[-122.605331,45.524287],[-122.605309,45.526505],[-122.604691,45.526509],[-122.604681,45.52779],[-122.603705,45.52812],[-122.603054,45.528414],[-122.602105,45.528904],[-122.602149,45.527973],[-122.602224,45.522888],[-122.598449,45.522889],[-122.597036,45.523128],[-122.592644,45.523163],[-122.59183,45.523132],[-122.591866,45.522285],[-122.591806,45.522119],[-122.590795,45.521725],[-122.588854,45.520816],[-122.588049,45.520426],[-122.587982,45.520367],[-122.58811,45.520288],[-122.58837,45.520291],[-122.588499,45.520258],[-122.588551,45.520196],[-122.58856,45.520135],[-122.588466,45.519916],[-122.588477,45.519283],[-122.588561,45.519221],[-122.578949,45.519151],[-122.578899,45.517674],[-122.578672,45.513532],[-122.578597,45.511331],[-122.578622,45.503427],[-122.578654,45.502154],[-122.578632,45.500523],[-122.578673,45.499188],[-122.578667,45.497428],[-122.578713,45.4962],[-122.578767,45.491428],[-122.578619,45.49153],[-122.576787,45.491525],[-122.576776,45.490252],[-122.574934,45.490263],[-122.574053,45.49018],[-122.574028,45.490089],[-122.574031,45.49018],[-122.571405,45.490091],[-122.566611,45.490017],[-122.558321,45.489808],[-122.555741,45.489801],[-122.555728,45.489085],[-122.555099,45.489081],[-122.555104,45.488906],[-122.553175,45.48891],[-122.553167,45.488033],[-122.558315,45.488002],[-122.558278,45.483681],[-122.553157,45.483849],[-122.553166,45.482813],[-122.552824,45.482651],[-122.552836,45.481721],[-122.552902,45.481728],[-122.55294,45.478335],[-122.558306,45.478361],[-122.558325,45.476989],[-122.555565,45.476459],[-122.555571,45.475362],[-122.555777,45.475343],[-122.555799,45.471798],[-122.553232,45.471844],[-122.553217,45.471387],[-122.555787,45.471128],[-122.555804,45.470007],[-122.556302,45.470006],[-122.556298,45.469564],[-122.55581,45.46955],[-122.555802,45.468971],[-122.556397,45.468968],[-122.556398,45.468663],[-122.556604,45.468659],[-122.556589,45.468217],[-122.555798,45.468232],[-122.555806,45.467477],[-122.557204,45.467482],[-122.557213,45.467756],[-122.557484,45.467752],[-122.557475,45.467485],[-122.558363,45.467477],[-122.558358,45.465404],[-122.558666,45.46552],[-122.559244,45.465639],[-122.559265,45.464633]]]]}},{"type":"Feature","properties":{"name":"Grant High School","school_label":"Grant High School Japanese Immersion","cluster":"Grant","level":"9-12","area_sqmi":4.42},"geometry":{"type":"MultiPolygon","coordinates":[[[[-122.610712,45.586835],[-122.608433,45.588432],[-122.60835,45.588563],[-122.608354,45.588662],[-122.608411,45.58876],[-122.6085,45.588827],[-122.609415,45.589206],[-122.610031,45.589431],[-122.610557,45.589574],[-122.611059,45.589656],[-122.61156,45.5897],[-122.612744,45.589701],[-122.612861,45.589631],[-122.61296,45.589347],[-122.613146,45.589382],[-122.613079,45.589634],[-122.613202,45.589739],[-122.613923,45.589878],[-122.614429,45.590059],[-122.622091,45.593042],[-122.622258,45.593154],[-122.622383,45.593311],[-122.622423,45.593539],[-122.622374,45.593685],[-122.620356,45.59623],[-122.620164,45.596355],[-122.619982,45.596427],[-122.619767,45.596477],[-122.619408,45.596476],[-122.619157,45.596419],[-122.606728,45.591588],[-122.606389,45.591533],[-122.605682,45.591508],[-122.604238,45.591511],[-122.604099,45.59156],[-122.603962,45.591692],[-122.603942,45.592363],[-122.603605,45.592361],[-122.603596,45.592102],[-122.603562,45.592057],[-122.603419,45.592007],[-122.60329,45.592032],[-122.600331,45.594113],[-122.600272,45.594282],[-122.600375,45.594455],[-122.600754,45.594723],[-122.60147,45.595007],[-122.601593,45.595127],[-122.60162,45.595286],[-122.601351,45.595664],[-122.601234,45.595743],[-122.601094,45.595783],[-122.600476,45.595795],[-122.600304,45.595851],[-122.599876,45.596355],[-122.599009,45.596019],[-122.599236,45.596054],[-122.599409,45.596043],[-122.599634,45.595955],[-122.599836,45.595814],[-122.60018,45.595404],[-122.600303,45.595196],[-122.60033,45.595035],[-122.600306,45.59496],[-122.600216,45.59487],[-122.599684,45.594567],[-122.599067,45.594319],[-122.598421,45.594141],[-122.598181,45.59413],[-122.597934,45.594195],[-122.597084,45.594767],[-122.596678,45.594957],[-122.596627,45.595042],[-122.596673,45.59511],[-122.595462,45.594644],[-122.595624,45.594451],[-122.59561,45.594527],[-122.5957,45.594625],[-122.596017,45.594665],[-122.596417,45.594619],[-122.596707,45.594515],[-122.596887,45.594405],[-122.596917,45.59432],[-122.59663,45.594188],[-122.596938,45.593985],[-122.597179,45.594049],[-122.597288,45.594039],[-122.597394,45.593969],[-122.597413,45.5939],[-122.597389,45.593839],[-122.597299,45.593734],[-122.597078,45.593616],[-122.596838,45.59359],[-122.59671,45.593661],[-122.595517,45.593401],[-122.595712,45.593375],[-122.595829,45.593296],[-122.595857,45.593181],[-122.595749,45.593057],[-122.596195,45.592573],[-122.596403,45.592638],[-122.59674,45.592647],[-122.597009,45.592573],[-122.597201,45.592456],[-122.5982,45.59121],[-122.598337,45.591086],[-122.598498,45.591014],[-122.598714,45.590972],[-122.599702,45.590962],[-122.599927,45.590889],[-122.600118,45.590764],[-122.600607,45.590122],[-122.60061,45.589916],[-122.600564,45.589818],[-122.600462,45.589713],[-122.600329,45.589632],[-122.594892,45.587521],[-122.594792,45.587447],[-122.59471,45.587281],[-122.594621,45.587206],[-122.594158,45.587016],[-122.593252,45.586553],[-122.592796,45.586249],[-122.590669,45.58503],[-122.589283,45.584484],[-122.588627,45.584358],[-122.588787,45.584272],[-122.588932,45.584078],[-122.588918,45.583995],[-122.588829,45.583928],[-122.584526,45.582253],[-122.58432,45.582242],[-122.583209,45.582468],[-122.582855,45.582276],[-122.582597,45.582029],[-122.581885,45.582172],[-122.581809,45.581845],[-122.582114,45.58187],[-122.582459,45.581795],[-122.582385,45.581545],[-122.582415,45.581461],[-122.583081,45.581258],[-122.584788,45.579101],[-122.585096,45.579225],[-122.584971,45.57938],[-122.584955,45.579548],[-122.585024,45.579661],[-122.585158,45.57975],[-122.592344,45.582553],[-122.592529,45.582565],[-122.592723,45.582516],[-122.592861,45.582422],[-122.592964,45.582283],[-122.593218,45.582385],[-122.593103,45.582532],[-122.593065,45.582685],[-122.593112,45.58279],[-122.59329,45.582924],[-122.597109,45.584409],[-122.598107,45.584681],[-122.598387,45.584615],[-122.598534,45.584467],[-122.598886,45.584598],[-122.598813,45.584691],[-122.598786,45.584867],[-122.598855,45.58498],[-122.598956,45.585054],[-122.599398,45.585275],[-122.599847,45.585403],[-122.600032,45.585415],[-122.60014,45.58539],[-122.600342,45.585265],[-122.600727,45.585403],[-122.600676,45.58551],[-122.600681,45.58564],[-122.600749,45.585738],[-122.600871,45.585819],[-122.601214,45.586003],[-122.601677,45.586193],[-122.602082,45.586277],[-122.604743,45.586312],[-122.608142,45.586311],[-122.608315,45.586285],[-122.608388,45.5862],[-122.60834,45.586063],[-122.608797,45.585765],[-122.608918,45.585809],[-122.609123,45.585782],[-122.609434,45.585662],[-122.609839,45.585449],[-122.612362,45.58368],[-122.612742,45.583361],[-122.612856,45.583206],[-122.612937,45.583029],[-122.612912,45.582946],[-122.612857,45.582901],[-122.613376,45.582549],[-122.613606,45.582598],[-122.613929,45.5825],[-122.614313,45.582303],[-122.614812,45.581981],[-122.614906,45.58188],[-122.614934,45.581758],[-122.614909,45.581667],[-122.614797,45.581547],[-122.61504,45.581367],[-122.616777,45.582593],[-122.610712,45.586835]],[[-122.598149,45.594138],[-122.598902,45.593598],[-122.59885,45.593691],[-122.598853,45.593767],[-122.598899,45.59385],[-122.599022,45.593931],[-122.599208,45.593989],[-122.599437,45.594],[-122.599674,45.59395],[-122.599834,45.593871],[-122.599749,45.593933],[-122.60257,45.591961],[-122.602663,45.591799],[-122.602625,45.591663],[-122.602513,45.591566],[-122.602403,45.59153],[-122.602035,45.591552],[-122.601657,45.59162],[-122.601177,45.591857],[-122.600751,45.592116],[-122.599691,45.592875],[-122.599385,45.593125],[-122.598912,45.593583],[-122.598149,45.594138]],[[-122.591442,45.583804],[-122.591365,45.583775],[-122.591827,45.583957],[-122.591442,45.583804]],[[-122.591365,45.583775],[-122.584278,45.581023],[-122.584017,45.581013],[-122.583888,45.581038],[-122.583696,45.581148],[-122.583613,45.581256],[-122.583596,45.581409],[-122.583688,45.58156],[-122.583955,45.581745],[-122.584331,45.581921],[-122.590505,45.584339],[-122.590899,45.584424],[-122.591104,45.584405],[-122.591254,45.584333],[-122.591391,45.584224],[-122.591547,45.584008],[-122.591544,45.583932],[-122.591498,45.583856],[-122.591365,45.583775]],[[-122.584366,45.581052],[-122.58419,45.580979],[-122.583541,45.580732],[-122.584366,45.581052]],[[-122.58439,45.58048],[-122.58447,45.580585],[-122.584625,45.580689],[-122.591624,45.583412],[-122.591799,45.583439],[-122.591939,45.583406],[-122.592055,45.583313],[-122.592189,45.583105],[-122.592228,45.582967],[-122.592136,45.582831],[-122.591858,45.582646],[-122.591472,45.582455],[-122.585804,45.580241],[-122.585102,45.580033],[-122.584732,45.580009],[-122.584571,45.580058],[-122.584413,45.580198],[-122.584363,45.58032],[-122.58439,45.58048]],[[-122.596108,45.585624],[-122.596086,45.585617],[-122.596266,45.585687],[-122.596108,45.585624]],[[-122.596086,45.585617],[-122.593049,45.58443],[-122.592687,45.584322],[-122.592436,45.584289],[-122.5921,45.584318],[-122.591864,45.584398],[-122.591739,45.584561],[-122.591754,45.58466],[-122.59181,45.584727],[-122.592,45.584876],[-122.59221,45.584987],[-122.593213,45.58541],[-122.595942,45.586458],[-122.596083,45.586463],[-122.596266,45.586422],[-122.596393,45.586335],[-122.596465,45.58622],[-122.596457,45.585984],[-122.596376,45.585817],[-122.596275,45.58572],[-122.596086,45.585617]],[[-122.59632,45.587053],[-122.596196,45.586918],[-122.595191,45.586411],[-122.591889,45.585122],[-122.591803,45.585139],[-122.591771,45.585177],[-122.591817,45.585253],[-122.593877,45.586427],[-122.595002,45.58694],[-122.596044,45.587241],[-122.596249,45.587199],[-122.596322,45.587106],[-122.59632,45.587053]],[[-122.593109,45.583979],[-122.598865,45.586222],[-122.599357,45.586296],[-122.600258,45.586295],[-122.600473,45.586246],[-122.600568,45.586152],[-122.600554,45.586069],[-122.60032,45.585898],[-122.59408,45.583466],[-122.593509,45.583279],[-122.593082,45.583187],[-122.592801,45.583223],[-122.592653,45.583332],[-122.592626,45.583493],[-122.592731,45.583704],[-122.592888,45.583854],[-122.593109,45.583979]],[[-122.598707,45.587932],[-122.598682,45.587833],[-122.598505,45.58773],[-122.598163,45.587583],[-122.597647,45.587425],[-122.597077,45.587276],[-122.596926,45.587286],[-122.596799,45.587403],[-122.596814,45.587509],[-122.596903,45.587591],[-122.597555,45.587915],[-122.59783,45.588016],[-122.598092,45.588057],[-122.598462,45.588058],[-122.598634,45.588017],[-122.598707,45.587932]],[[-122.600041,45.587252],[-122.599047,45.586775],[-122.598618,45.586607],[-122.598366,45.586543],[-122.597931,45.586521],[-122.597596,45.58658],[-122.597415,45.586683],[-122.597333,45.586821],[-122.597348,45.586928],[-122.597393,45.586995],[-122.59756,45.587099],[-122.598583,45.587492],[-122.598923,45.587592],[-122.599665,45.587686],[-122.600219,45.587683],[-122.6005,45.587663],[-122.600554,45.587631],[-122.600551,45.587555],[-122.600041,45.587252]],[[-122.59766,45.586228],[-122.597473,45.586156],[-122.597715,45.58625],[-122.59766,45.586228]],[[-122.598716,45.591994],[-122.598555,45.59205],[-122.598344,45.592221],[-122.597905,45.592717],[-122.597741,45.593017],[-122.597704,45.593193],[-122.597708,45.5933],[-122.59781,45.593451],[-122.597953,45.593494],[-122.598148,45.593467],[-122.598309,45.593419],[-122.598757,45.593197],[-122.599181,45.592877],[-122.599452,45.592552],[-122.599456,45.592346],[-122.599263,45.592121],[-122.59902,45.592003],[-122.598716,45.591994]],[[-122.598255,45.586469],[-122.598222,45.586454],[-122.598145,45.586425],[-122.598255,45.586469]],[[-122.598631,45.591736],[-122.599168,45.591543],[-122.599135,45.591552],[-122.598631,45.591736]],[[-122.599912,45.592033],[-122.60013,45.592059],[-122.600302,45.59201],[-122.600879,45.591725],[-122.60107,45.5916],[-122.601068,45.591547],[-122.600969,45.591503],[-122.600198,45.591509],[-122.599233,45.591542],[-122.599169,45.591581],[-122.599171,45.591642],[-122.599426,45.591805],[-122.599912,45.592033]],[[-122.599229,45.586375],[-122.600121,45.586725],[-122.60011,45.586717],[-122.599229,45.586375]],[[-122.601645,45.589067],[-122.601445,45.58891],[-122.601157,45.588748],[-122.599869,45.588253],[-122.599717,45.588249],[-122.59962,45.588281],[-122.599505,45.588412],[-122.599542,45.588541],[-122.599799,45.588735],[-122.600396,45.589044],[-122.600825,45.589196],[-122.601284,45.589294],[-122.601512,45.589306],[-122.601651,45.589219],[-122.601671,45.589165],[-122.601645,45.589067]],[[-122.600308,45.586797],[-122.600336,45.586809],[-122.60033,45.586805],[-122.600308,45.586797]],[[-122.600384,45.588084],[-122.600331,45.588115],[-122.600333,45.588169],[-122.600378,45.588206],[-122.601467,45.588628],[-122.601543,45.588627],[-122.601596,45.588588],[-122.601595,45.588534],[-122.601356,45.588241],[-122.601189,45.588107],[-122.601025,45.588065],[-122.600384,45.588084]],[[-122.600451,45.586856],[-122.600352,45.586812],[-122.600344,45.586812],[-122.600451,45.586856]],[[-122.600836,45.587001],[-122.604534,45.588442],[-122.604775,45.588506],[-122.604982,45.588526],[-122.605253,45.588498],[-122.605466,45.588379],[-122.60557,45.588233],[-122.605531,45.588066],[-122.605397,45.587954],[-122.604151,45.58739],[-122.602092,45.586589],[-122.601548,45.586538],[-122.601309,45.58655],[-122.60091,45.586641],[-122.600782,45.586697],[-122.600699,45.586798],[-122.600724,45.586912],[-122.600836,45.587001]],[[-122.601229,45.591178],[-122.601436,45.591189],[-122.602108,45.590834],[-122.602507,45.590423],[-122.602525,45.590339],[-122.60249,45.590255],[-122.602423,45.590196],[-122.601994,45.590036],[-122.60182,45.590047],[-122.601703,45.59011],[-122.601303,45.590483],[-122.601048,45.590945],[-122.601051,45.591052],[-122.601097,45.591112],[-122.601229,45.591178]],[[-122.60264,45.58895],[-122.602985,45.589164],[-122.603599,45.589351],[-122.603816,45.58934],[-122.603985,45.589214],[-122.604015,45.589138],[-122.603953,45.588903],[-122.60385,45.588767],[-122.603705,45.588633],[-122.603572,45.588567],[-122.602508,45.588258],[-122.602158,45.588181],[-122.60205,45.588213],[-122.602042,45.588275],[-122.602281,45.58859],[-122.60264,45.58895]],[[-122.604478,45.59028],[-122.604235,45.590155],[-122.604048,45.590097],[-122.60394,45.590092],[-122.603692,45.590165],[-122.602978,45.590559],[-122.602077,45.591193],[-122.602057,45.591247],[-122.602157,45.591298],[-122.603123,45.591303],[-122.60334,45.591284],[-122.603577,45.591219],[-122.603747,45.591132],[-122.60449,45.590615],[-122.604562,45.590507],[-122.60456,45.590439],[-122.604546,45.590363],[-122.604478,45.59028]],[[-122.602238,45.589559],[-122.602296,45.589665],[-122.602484,45.589775],[-122.603,45.589934],[-122.603184,45.589915],[-122.603278,45.589814],[-122.603275,45.589715],[-122.603208,45.589656],[-122.602711,45.589421],[-122.602384,45.589396],[-122.602267,45.589467],[-122.602238,45.589559]],[[-122.607325,45.586539],[-122.606889,45.586509],[-122.602893,45.586506],[-122.602785,45.586523],[-122.602818,45.58653],[-122.602776,45.586562],[-122.602777,45.5866],[-122.602833,45.586644],[-122.604957,45.587474],[-122.605605,45.587691],[-122.606109,45.587811],[-122.606304,45.587793],[-122.606849,45.587539],[-122.607549,45.587046],[-122.607673,45.586891],[-122.60768,45.586754],[-122.607533,45.586596],[-122.607325,45.586539]],[[-122.603538,45.588529],[-122.603555,45.588533],[-122.603527,45.588522],[-122.603538,45.588529]],[[-122.604972,45.590103],[-122.605296,45.590052],[-122.60607,45.589512],[-122.605652,45.589359],[-122.605152,45.589338],[-122.604904,45.589396],[-122.604563,45.5896],[-122.604512,45.5897],[-122.604526,45.589784],[-122.60474,45.590001],[-122.604972,45.590103]],[[-122.60517,45.590824],[-122.604965,45.590866],[-122.604647,45.591077],[-122.604595,45.591154],[-122.604608,45.591223],[-122.604676,45.591282],[-122.604763,45.591304],[-122.605827,45.591299],[-122.60588,45.59126],[-122.605867,45.591192],[-122.605822,45.591155],[-122.605411,45.590873],[-122.60517,45.590824]],[[-122.612745,45.592239],[-122.612489,45.592053],[-122.612047,45.591841],[-122.606598,45.589715],[-122.605633,45.590388],[-122.605551,45.590519],[-122.605566,45.590656],[-122.605634,45.590739],[-122.606089,45.591013],[-122.61156,45.593145],[-122.611834,45.593216],[-122.612107,45.593257],[-122.612259,45.593247],[-122.612441,45.593182],[-122.612631,45.593034],[-122.612808,45.592794],[-122.612887,45.592587],[-122.612847,45.592359],[-122.612745,45.592239]],[[-122.606183,45.589007],[-122.606494,45.589214],[-122.606653,45.589105],[-122.607023,45.588816],[-122.607053,45.588747],[-122.607027,45.588602],[-122.60687,45.588468],[-122.606475,45.588346],[-122.606302,45.588364],[-122.606173,45.58842],[-122.606069,45.588536],[-122.606055,45.588773],[-122.606183,45.589007]],[[-122.609265,45.586763],[-122.609121,45.586666],[-122.608892,45.586648],[-122.608559,45.586753],[-122.608101,45.586997],[-122.607591,45.587327],[-122.607011,45.587841],[-122.60696,45.587941],[-122.607,45.58813],[-122.607245,45.588316],[-122.607486,45.588388],[-122.607756,45.58833],[-122.609049,45.587422],[-122.609176,45.587305],[-122.60932,45.587082],[-122.609324,45.586884],[-122.609265,45.586763]],[[-122.607022,45.589418],[-122.620519,45.594672],[-122.620661,45.5947],[-122.620932,45.594679],[-122.621061,45.594639],[-122.621284,45.594505],[-122.621598,45.594164],[-122.621919,45.593709],[-122.621979,45.59357],[-122.621974,45.593418],[-122.621883,45.593305],[-122.621043,45.592879],[-122.618951,45.592056],[-122.618809,45.592051],[-122.618368,45.592174],[-122.618259,45.59216],[-122.617356,45.591796],[-122.617257,45.591432],[-122.617178,45.591365],[-122.613965,45.590136],[-122.613537,45.59003],[-122.613112,45.589969],[-122.612274,45.589923],[-122.611318,45.589926],[-122.610632,45.589847],[-122.610138,45.589719],[-122.608081,45.588941],[-122.607895,45.588914],[-122.60768,45.588964],[-122.607022,45.589418]],[[-122.610401,45.585362],[-122.609694,45.585962],[-122.60957,45.586147],[-122.609544,45.586331],[-122.609601,45.586429],[-122.609724,45.586526],[-122.609899,45.586568],[-122.610235,45.586539],[-122.610364,45.586491],[-122.6157,45.582761],[-122.6158,45.582626],[-122.615829,45.582504],[-122.61578,45.58236],[-122.615579,45.582196],[-122.615306,45.582147],[-122.614898,45.582284],[-122.614536,45.582482],[-122.610401,45.585362]],[[-122.612282,45.591933],[-122.612201,45.591899],[-122.612179,45.591891],[-122.612282,45.591933]],[[-122.612488,45.592015],[-122.61241,45.591979],[-122.612364,45.591966],[-122.612488,45.592015]],[[-122.613885,45.592554],[-122.613786,45.592517],[-122.613964,45.592586],[-122.613885,45.592554]],[[-122.613786,45.592517],[-122.613742,45.592495],[-122.613654,45.592466],[-122.613786,45.592517]],[[-122.613654,45.592466],[-122.612895,45.592168],[-122.612653,45.592081],[-122.613654,45.592466]],[[-122.620238,45.595028],[-122.614062,45.592627],[-122.61393,45.592598],[-122.613735,45.59261],[-122.613542,45.592674],[-122.61333,45.592831],[-122.613039,45.593186],[-122.612967,45.593317],[-122.61295,45.593447],[-122.613009,45.593591],[-122.613076,45.593651],[-122.613475,45.593887],[-122.618419,45.595816],[-122.619386,45.596148],[-122.61968,45.596166],[-122.619927,45.596085],[-122.620022,45.596015],[-122.620438,45.595481],[-122.620467,45.595382],[-122.62044,45.59523],[-122.620371,45.595124],[-122.620238,45.595028]],[[-122.616118,45.582469],[-122.616333,45.582319],[-122.616354,45.582304],[-122.616118,45.582469]],[[-122.62078,45.595242],[-122.620932,45.595304],[-122.620964,45.595311],[-122.62078,45.595242]]],[[[-122.610638,45.58689],[-122.611624,45.586201],[-122.61154,45.586294],[-122.611523,45.586409],[-122.611615,45.586567],[-122.611793,45.586693],[-122.611689,45.586825],[-122.611502,45.58676],[-122.61124,45.586726],[-122.610873,45.586779],[-122.610638,45.58689]]],[[[-122.596184,45.592581],[-122.595744,45.593061],[-122.595115,45.592768],[-122.594345,45.59247],[-122.593676,45.592269],[-122.593153,45.59224],[-122.593025,45.592303],[-122.592974,45.592411],[-122.59301,45.592494],[-122.593077,45.592546],[-122.593309,45.592656],[-122.594696,45.59321],[-122.59519,45.593354],[-122.596699,45.593661],[-122.59668,45.59373],[-122.596715,45.593798],[-122.596805,45.593911],[-122.596938,45.593985],[-122.596619,45.594189],[-122.596212,45.594028],[-122.596103,45.594023],[-122.596017,45.594055],[-122.595576,45.594497],[-122.595462,45.594644],[-122.599009,45.596019],[-122.598984,45.596013],[-122.599876,45.596355],[-122.599584,45.596718],[-122.566049,45.583639],[-122.566643,45.582889],[-122.566811,45.582741],[-122.567015,45.582654],[-122.567252,45.582611],[-122.567656,45.582657],[-122.575865,45.58587],[-122.575974,45.585891],[-122.57618,45.585872],[-122.576329,45.585793],[-122.576402,45.585708],[-122.576666,45.58581],[-122.576593,45.585895],[-122.576575,45.586002],[-122.57669,45.586175],[-122.577736,45.586598],[-122.57791,45.586611],[-122.577984,45.586563],[-122.57813,45.586386],[-122.578394,45.58648],[-122.578228,45.586704],[-122.578341,45.586839],[-122.580795,45.587793],[-122.581815,45.588087],[-122.581999,45.588068],[-122.582158,45.587959],[-122.582598,45.588134],[-122.582549,45.588272],[-122.582585,45.588362],[-122.582663,45.58843],[-122.583524,45.588856],[-122.584944,45.589409],[-122.585382,45.589501],[-122.586011,45.589482],[-122.586237,45.589416],[-122.586288,45.589339],[-122.586275,45.589256],[-122.58623,45.589211],[-122.585679,45.588992],[-122.586043,45.588833],[-122.586238,45.58883],[-122.588879,45.589841],[-122.589315,45.589894],[-122.596184,45.592581]],[[-122.566988,45.58315],[-122.566973,45.583356],[-122.567088,45.583529],[-122.567232,45.583625],[-122.566705,45.583425],[-122.567739,45.58383],[-122.56801,45.58384],[-122.568128,45.583792],[-122.568319,45.583651],[-122.568412,45.583513],[-122.568397,45.583383],[-122.568273,45.583248],[-122.568018,45.583093],[-122.567787,45.583006],[-122.567503,45.582957],[-122.567275,45.582962],[-122.567082,45.583041],[-122.566988,45.58315]],[[-122.575681,45.586529],[-122.575974,45.586211],[-122.575972,45.586158],[-122.570789,45.584118],[-122.569756,45.583755],[-122.569373,45.583671],[-122.569112,45.583668],[-122.568994,45.583708],[-122.568888,45.583778],[-122.568805,45.583887],[-122.568823,45.584115],[-122.568981,45.584295],[-122.569114,45.584369],[-122.57499,45.586663],[-122.575143,45.586691],[-122.575371,45.586679],[-122.575532,45.586631],[-122.575681,45.586529]],[[-122.581537,45.588846],[-122.581819,45.588521],[-122.581806,45.588453],[-122.581727,45.588386],[-122.576897,45.586515],[-122.576547,45.586437],[-122.576351,45.586448],[-122.576159,45.586528],[-122.576055,45.586667],[-122.576039,45.586827],[-122.576165,45.587023],[-122.576531,45.587268],[-122.5809,45.588965],[-122.581216,45.588982],[-122.581409,45.588925],[-122.581537,45.588846]],[[-122.5861,45.590189],[-122.58612,45.590135],[-122.586053,45.590075],[-122.582685,45.588772],[-122.582325,45.58871],[-122.58213,45.588737],[-122.581918,45.58887],[-122.581826,45.589039],[-122.581829,45.589146],[-122.581888,45.589282],[-122.582012,45.589394],[-122.582967,45.589712],[-122.584347,45.590045],[-122.585623,45.590197],[-122.586014,45.590213],[-122.5861,45.590189]],[[-122.589766,45.591951],[-122.590679,45.59198],[-122.59071,45.591934],[-122.590632,45.591859],[-122.587286,45.590556],[-122.586946,45.590471],[-122.586652,45.590438],[-122.585307,45.590485],[-122.585189,45.590548],[-122.58518,45.590586],[-122.585226,45.590654],[-122.586436,45.591128],[-122.58794,45.591603],[-122.589144,45.591871],[-122.589766,45.591951]],[[-122.587847,45.589829],[-122.587254,45.589642],[-122.586701,45.589652],[-122.586485,45.589694],[-122.586422,45.589741],[-122.586392,45.58984],[-122.586451,45.589954],[-122.586562,45.590028],[-122.587024,45.59021],[-122.587806,45.590211],[-122.588053,45.59013],[-122.588093,45.590038],[-122.588047,45.589948],[-122.587847,45.589829]],[[-122.591535,45.591911],[-122.591676,45.591909],[-122.591793,45.591846],[-122.591855,45.591745],[-122.591829,45.591616],[-122.591728,45.591527],[-122.590943,45.591129],[-122.589479,45.590562],[-122.589041,45.590448],[-122.588781,45.59046],[-122.588674,45.590508],[-122.58859,45.590601],[-122.588593,45.590692],[-122.588684,45.590805],[-122.589126,45.591033],[-122.590469,45.591557],[-122.591535,45.591911]],[[-122.595356,45.59409],[-122.595373,45.593945],[-122.595326,45.593846],[-122.595059,45.593653],[-122.594594,45.59341],[-122.592778,45.592696],[-122.591723,45.592342],[-122.591199,45.592245],[-122.589897,45.592284],[-122.589791,45.592362],[-122.589803,45.592415],[-122.589859,45.59246],[-122.59457,45.594295],[-122.594854,45.59432],[-122.595145,45.594261],[-122.595356,45.59409]]],[[[-122.617214,45.521637],[-122.61845,45.521622],[-122.619268,45.521431],[-122.61971,45.521362],[-122.622606,45.521362],[-122.622597,45.52172],[-122.622955,45.521721],[-122.622938,45.522804],[-122.62348,45.522786],[-122.624236,45.522696],[-122.626175,45.522302],[-122.627407,45.522165],[-122.628004,45.522169],[-122.628658,45.522279],[-122.628918,45.522259],[-122.629424,45.522142],[-122.631614,45.522132],[-122.631605,45.524343],[-122.634425,45.524344],[-122.634391,45.530205],[-122.634428,45.530326],[-122.634792,45.530807],[-122.635587,45.530587],[-122.636418,45.530472],[-122.644758,45.530073],[-122.644715,45.535035],[-122.664594,45.535111],[-122.664586,45.535813],[-122.663566,45.535809],[-122.663559,45.536525],[-122.66408,45.536523],[-122.664067,45.537087],[-122.661528,45.537082],[-122.661464,45.543836],[-122.661492,45.544643],[-122.661342,45.544692],[-122.658455,45.544678],[-122.658417,45.548215],[-122.658463,45.548282],[-122.654317,45.548269],[-122.654346,45.546005],[-122.655366,45.546008],[-122.655371,45.545216],[-122.640958,45.545173],[-122.640968,45.548244],[-122.640905,45.550784],[-122.640497,45.550593],[-122.640256,45.550841],[-122.640229,45.551002],[-122.64007,45.551112],[-122.638779,45.552957],[-122.638783,45.553087],[-122.633692,45.553067],[-122.633666,45.555415],[-122.630507,45.555405],[-122.630513,45.553698],[-122.620388,45.553718],[-122.620118,45.553776],[-122.614756,45.553753],[-122.614779,45.551901],[-122.609514,45.551868],[-122.609567,45.548369],[-122.609467,45.548287],[-122.604387,45.548258],[-122.604457,45.542419],[-122.604419,45.54226],[-122.607513,45.541029],[-122.607501,45.541311],[-122.610268,45.541329],[-122.610509,45.54137],[-122.61063,45.541437],[-122.610766,45.541602],[-122.610821,45.541929],[-122.611128,45.54171],[-122.611535,45.541573],[-122.611828,45.541567],[-122.612255,45.541674],[-122.61292,45.541753],[-122.613353,45.541737],[-122.613492,45.541666],[-122.613815,45.541599],[-122.614835,45.541603],[-122.614868,45.533783],[-122.604864,45.533731],[-122.604887,45.532199],[-122.604954,45.531938],[-122.604979,45.530467],[-122.605033,45.530138],[-122.605038,45.5284],[-122.604681,45.52779],[-122.604691,45.526509],[-122.605309,45.526505],[-122.605331,45.524287],[-122.607337,45.524288],[-122.607536,45.524376],[-122.611929,45.524379],[-122.611932,45.525095],[-122.612626,45.525098],[-122.612612,45.524687],[-122.61335,45.524688],[-122.613361,45.524398],[-122.614924,45.524408],[-122.614901,45.523753],[-122.614918,45.52299],[-122.6154,45.523111],[-122.616084,45.523136],[-122.616055,45.521986],[-122.617216,45.521995],[-122.617214,45.521637]]],[[[-122.656584,45.624051],[-122.656581,45.623967],[-122.656776,45.623963],[-122.656792,45.623795],[-122.656433,45.623794],[-122.656441,45.623703],[-122.6568,45.623711],[-122.656901,45.623808],[-122.656894,45.623908],[-122.656939,45.623952],[-122.657026,45.623958],[-122.657057,45.62392],[-122.657064,45.622883],[-122.657017,45.622793],[-122.656679,45.622433],[-122.656495,45.622155],[-122.656466,45.621965],[-122.656527,45.621537],[-122.656493,45.621476],[-122.656416,45.621447],[-122.651139,45.621249],[-122.65116,45.620639],[-122.651123,45.62051],[-122.651034,45.620451],[-122.650696,45.620419],[-122.650537,45.620536],[-122.650112,45.620483],[-122.649832,45.620245],[-122.649786,45.620169],[-122.649825,45.619749],[-122.662475,45.621036],[-122.662498,45.621081],[-122.662445,45.621425],[-122.662361,45.621503],[-122.662233,45.621559],[-122.658395,45.621189],[-122.658189,45.621208],[-122.658094,45.621294],[-122.657484,45.621229],[-122.657261,45.621073],[-122.656858,45.621043],[-122.656783,45.621075],[-122.656576,45.621985],[-122.656592,45.62213],[-122.656753,45.622394],[-122.657135,45.622752],[-122.657183,45.622881],[-122.657176,45.623902],[-122.657547,45.623933],[-122.657573,45.624063],[-122.656584,45.624051]],[[-122.651151,45.620052],[-122.650169,45.619956],[-122.649944,45.620044],[-122.649916,45.620159],[-122.650006,45.620241],[-122.650987,45.620345],[-122.651157,45.620243],[-122.651177,45.620189],[-122.651151,45.620052]],[[-122.656508,45.620988],[-122.651492,45.620496],[-122.651332,45.620567],[-122.651293,45.620713],[-122.651363,45.620826],[-122.651429,45.620863],[-122.652746,45.620922],[-122.652753,45.62112],[-122.652776,45.621165],[-122.652887,45.621216],[-122.656456,45.621363],[-122.656563,45.621323],[-122.65662,45.621078],[-122.656508,45.620988]],[[-122.651423,45.62039],[-122.656516,45.620904],[-122.656623,45.620864],[-122.656696,45.620764],[-122.656559,45.620591],[-122.651597,45.620082],[-122.651446,45.6201],[-122.651308,45.620202],[-122.651323,45.620323],[-122.651423,45.62039]],[[-122.656796,45.620846],[-122.656831,45.620906],[-122.656897,45.620935],[-122.662012,45.621464],[-122.662175,45.621461],[-122.662282,45.621406],[-122.662332,45.621306],[-122.662297,45.621222],[-122.66211,45.62115],[-122.657039,45.620635],[-122.656815,45.620769],[-122.656796,45.620846]]]]}},{"type":"Feature","properties":{"name":"Jefferson High School","school_label":"Jefferson High School Mandarin Immersion","cluster":"Jefferson","level":"9-12","area_sqmi":21.89},"geometry":{"type":"MultiPolygon","coordinates":[[[[-122.671366,45.533352],[-122.674122,45.531837],[-122.68289,45.537935],[-122.687296,45.540702],[-122.6947,45.54774],[-122.708771,45.554215],[-122.723375,45.562408],[-122.730788,45.566517],[-122.723853,45.570737],[-122.721619,45.572876],[-122.721047,45.57326],[-122.721237,45.573409],[-122.720085,45.57398],[-122.718391,45.574577],[-122.714086,45.575315],[-122.71199,45.575295],[-122.708846,45.575119],[-122.707765,45.574965],[-122.70667,45.574704],[-122.705673,45.574441],[-122.704344,45.57404],[-122.703629,45.573771],[-122.702621,45.573212],[-122.702618,45.577045],[-122.702568,45.577153],[-122.681895,45.577144],[-122.678434,45.577232],[-122.678391,45.581189],[-122.678492,45.58249],[-122.678693,45.583561],[-122.680816,45.588284],[-122.682394,45.588353],[-122.683193,45.588536],[-122.684095,45.588847],[-122.684802,45.589199],[-122.685385,45.589409],[-122.688561,45.590126],[-122.689153,45.59029],[-122.693178,45.591699],[-122.694221,45.591992],[-122.695653,45.592551],[-122.698503,45.593594],[-122.700839,45.594205],[-122.70162,45.594495],[-122.702418,45.594624],[-122.70354,45.594725],[-122.704777,45.594693],[-122.705854,45.594741],[-122.706598,45.594895],[-122.707005,45.595016],[-122.708137,45.595383],[-122.709336,45.595817],[-122.709994,45.595972],[-122.71206,45.596344],[-122.712874,45.596618],[-122.714556,45.597493],[-122.715592,45.598204],[-122.716598,45.598985],[-122.718288,45.60005],[-122.718765,45.600315],[-122.719162,45.600475],[-122.704858,45.612213],[-122.704723,45.612391],[-122.703945,45.613694],[-122.702976,45.613339],[-122.702723,45.613573],[-122.703509,45.613962],[-122.703723,45.614179],[-122.70389,45.614297],[-122.704915,45.614682],[-122.70517,45.614837],[-122.705976,45.61518],[-122.706371,45.615294],[-122.707704,45.615809],[-122.708136,45.616015],[-122.708624,45.61631],[-122.709251,45.616504],[-122.709429,45.616638],[-122.709682,45.616717],[-122.710538,45.617249],[-122.711056,45.617445],[-122.712196,45.617712],[-122.713948,45.618395],[-122.714269,45.618564],[-122.715514,45.61902],[-122.717748,45.62009],[-122.723251,45.623207],[-122.72595,45.624489],[-122.728281,45.625823],[-122.729369,45.626175],[-122.730072,45.626665],[-122.730883,45.627434],[-122.732035,45.628044],[-122.733095,45.629098],[-122.735357,45.630609],[-122.737127,45.631733],[-122.738172,45.632673],[-122.739578,45.633659],[-122.741951,45.635252],[-122.743332,45.636421],[-122.743262,45.640416],[-122.743202,45.647033],[-122.737657,45.644359],[-122.713475,45.63793],[-122.709036,45.635424],[-122.702275,45.631804],[-122.696237,45.628315],[-122.692959,45.62632],[-122.68911,45.624145],[-122.682485,45.621222],[-122.671859,45.617293],[-122.659249,45.614048],[-122.641263,45.609568],[-122.635108,45.609385],[-122.635007,45.605889],[-122.634922,45.600967],[-122.635051,45.599364],[-122.635206,45.598211],[-122.635377,45.596279],[-122.6354,45.5957],[-122.635499,45.595416],[-122.635505,45.594356],[-122.630411,45.594352],[-122.63042,45.590541],[-122.620221,45.589259],[-122.620222,45.578665],[-122.622054,45.577633],[-122.622044,45.575461],[-122.62418,45.575086],[-122.624137,45.571665],[-122.624583,45.571367],[-122.624581,45.570049],[-122.62432,45.570054],[-122.624313,45.568278],[-122.62419,45.568197],[-122.624194,45.566421],[-122.624454,45.566416],[-122.624455,45.565204],[-122.624344,45.565122],[-122.624361,45.564672],[-122.624279,45.564506],[-122.62428,45.563912],[-122.627417,45.563907],[-122.627421,45.562764],[-122.620237,45.56282],[-122.613994,45.562791],[-122.614043,45.560435],[-122.614684,45.560438],[-122.614698,45.55928],[-122.614637,45.559098],[-122.614691,45.555629],[-122.614729,45.555468],[-122.614756,45.553753],[-122.620118,45.553776],[-122.620388,45.553718],[-122.630513,45.553698],[-122.630507,45.555405],[-122.633666,45.555415],[-122.633692,45.553067],[-122.638783,45.553087],[-122.638779,45.552957],[-122.64007,45.551112],[-122.640229,45.551002],[-122.640256,45.550841],[-122.640497,45.550593],[-122.640905,45.550784],[-122.640968,45.548244],[-122.640958,45.545173],[-122.655371,45.545216],[-122.655366,45.546008],[-122.654346,45.546005],[-122.654317,45.548269],[-122.658463,45.548282],[-122.658417,45.548215],[-122.658455,45.544678],[-122.661342,45.544692],[-122.661492,45.544643],[-122.661464,45.543836],[-122.661528,45.537082],[-122.664067,45.537087],[-122.66408,45.536523],[-122.663559,45.536525],[-122.663566,45.535809],[-122.664586,45.535813],[-122.664594,45.535111],[-122.668315,45.535102],[-122.66872,45.534904],[-122.669718,45.53429],[-122.671366,45.533352]],[[-122.661069,45.566388],[-122.660221,45.566365],[-122.65945,45.56635],[-122.660211,45.566381],[-122.661069,45.566388]]]]}},{"type":"Feature","properties":{"name":"Lincoln High School","school_label":"Lincoln High School Spanish Immersion","cluster":"Lincoln","level":"9-12","area_sqmi":16.76},"geometry":{"type":"MultiPolygon","coordinates":[[[[-122.690137,45.490489],[-122.690541,45.489384],[-122.691031,45.489428],[-122.691264,45.489279],[-122.691641,45.489508],[-122.692454,45.489515],[-122.692456,45.489569],[-122.694397,45.489569],[-122.695055,45.489481],[-122.69505,45.489344],[-122.698346,45.489357],[-122.698465,45.489644],[-122.698905,45.489826],[-122.699332,45.489947],[-122.699433,45.490037],[-122.699512,45.490135],[-122.699549,45.490263],[-122.699571,45.490575],[-122.699721,45.490816],[-122.699958,45.491071],[-122.700572,45.491257],[-122.700729,45.491399],[-122.700746,45.491589],[-122.700609,45.491988],[-122.700605,45.492179],[-122.700829,45.492388],[-122.700832,45.492457],[-122.701437,45.492407],[-122.702102,45.492204],[-122.702253,45.492193],[-122.70258,45.492217],[-122.702986,45.49237],[-122.703277,45.492608],[-122.703515,45.492908],[-122.703553,45.493052],[-122.703463,45.493565],[-122.703511,45.493701],[-122.703644,45.493782],[-122.704264,45.493831],[-122.704387,45.493936],[-122.704423,45.494026],[-122.704416,45.494126],[-122.70432,45.49447],[-122.704402,45.494652],[-122.70459,45.49474],[-122.704807,45.494758],[-122.705409,45.494609],[-122.706004,45.494568],[-122.70646,45.494604],[-122.70668,45.494692],[-122.706762,45.494858],[-122.706732,45.494919],[-122.706244,45.495516],[-122.706095,45.495595],[-122.706028,45.49584],[-122.706087,45.495961],[-122.706263,45.496034],[-122.707109,45.496055],[-122.707414,45.496095],[-122.707982,45.496191],[-122.708354,45.496298],[-122.708642,45.496453],[-122.709246,45.496982],[-122.710001,45.497471],[-122.710656,45.498487],[-122.711004,45.49941],[-122.71103,45.499524],[-122.710965,45.500135],[-122.710974,45.500973],[-122.710881,45.501112],[-122.711021,45.501369],[-122.711155,45.501488],[-122.711288,45.501554],[-122.71182,45.501574],[-122.712115,45.501645],[-122.71323,45.502195],[-122.71362,45.501882],[-122.714203,45.501498],[-122.71491,45.500973],[-122.716282,45.50023],[-122.716861,45.500051],[-122.717089,45.50007],[-122.717696,45.500348],[-122.717783,45.500354],[-122.718314,45.499772],[-122.719026,45.499354],[-122.719271,45.499243],[-122.719625,45.499137],[-122.720421,45.498976],[-122.722447,45.499212],[-122.722894,45.498997],[-122.724005,45.498541],[-122.724659,45.498315],[-122.725609,45.498205],[-122.726132,45.498286],[-122.726436,45.498288],[-122.727265,45.498135],[-122.727855,45.497956],[-122.729134,45.497946],[-122.729736,45.498392],[-122.729705,45.49933],[-122.729725,45.500762],[-122.730323,45.500819],[-122.730307,45.500964],[-122.731142,45.500971],[-122.731133,45.50043],[-122.732261,45.500439],[-122.732265,45.500545],[-122.732948,45.500547],[-122.732951,45.500928],[-122.73358,45.500931],[-122.733589,45.502653],[-122.734189,45.502451],[-122.734249,45.502618],[-122.734523,45.502689],[-122.735768,45.501163],[-122.736603,45.501162],[-122.73522,45.502774],[-122.736137,45.503221],[-122.736118,45.503313],[-122.73591,45.503553],[-122.73546,45.503692],[-122.735302,45.503817],[-122.735108,45.504156],[-122.735036,45.504561],[-122.736209,45.504599],[-122.736424,45.50426],[-122.736643,45.504019],[-122.737818,45.503226],[-122.738257,45.503073],[-122.739535,45.502736],[-122.740209,45.502494],[-122.740441,45.502306],[-122.741086,45.501585],[-122.741188,45.501392],[-122.741235,45.501216],[-122.741237,45.500972],[-122.74072,45.49987],[-122.740593,45.499674],[-122.740232,45.499277],[-122.740135,45.499004],[-122.740102,45.4987],[-122.739843,45.498141],[-122.739842,45.497829],[-122.740079,45.497489],[-122.740216,45.497379],[-122.740343,45.497286],[-122.741173,45.496865],[-122.741837,45.496349],[-122.742329,45.495875],[-122.742756,45.495394],[-122.742951,45.495108],[-122.743284,45.494423],[-122.743477,45.493764],[-122.743623,45.493045],[-122.743855,45.49256],[-122.743849,45.498002],[-122.746399,45.498043],[-122.746407,45.497967],[-122.746996,45.498062],[-122.747027,45.498008],[-122.747709,45.497995],[-122.747701,45.498071],[-122.750359,45.498111],[-122.750479,45.498123],[-122.750672,45.498348],[-122.750953,45.49835],[-122.751039,45.498013],[-122.751443,45.498105],[-122.751985,45.498391],[-122.752896,45.498686],[-122.75333,45.498121],[-122.753891,45.498338],[-122.754134,45.498166],[-122.754905,45.498181],[-122.755351,45.498226],[-122.757412,45.498254],[-122.757357,45.497638],[-122.757845,45.497643],[-122.757846,45.498261],[-122.758324,45.498274],[-122.758363,45.497587],[-122.759042,45.497764],[-122.760365,45.498348],[-122.761065,45.498525],[-122.762399,45.498239],[-122.762702,45.498203],[-122.763865,45.498279],[-122.763942,45.500953],[-122.76466,45.501007],[-122.764669,45.501823],[-122.764322,45.501829],[-122.764272,45.501937],[-122.764334,45.502165],[-122.764638,45.502166],[-122.764631,45.50257],[-122.764191,45.50267],[-122.764308,45.502912],[-122.76428,45.50507],[-122.764487,45.505104],[-122.764488,45.505408],[-122.764405,45.506096],[-122.761646,45.505975],[-122.759519,45.505933],[-122.758316,45.505965],[-122.758323,45.507908],[-122.751091,45.507928],[-122.751087,45.508416],[-122.747293,45.508453],[-122.747323,45.508681],[-122.746608,45.50871],[-122.746404,45.508455],[-122.746035,45.508462],[-122.745751,45.508117],[-122.745106,45.508274],[-122.745202,45.51235],[-122.743857,45.512323],[-122.743854,45.519602],[-122.743821,45.523116],[-122.759312,45.523155],[-122.759315,45.526737],[-122.76206,45.526752],[-122.762046,45.527537],[-122.763163,45.52753],[-122.76315,45.529787],[-122.763443,45.529788],[-122.76344,45.531191],[-122.764406,45.531195],[-122.764402,45.531378],[-122.766019,45.531376],[-122.766035,45.533853],[-122.774713,45.533818],[-122.774716,45.530411],[-122.774745,45.530312],[-122.778119,45.530321],[-122.779889,45.530362],[-122.779798,45.531987],[-122.779762,45.533924],[-122.784822,45.534014],[-122.78469,45.542332],[-122.782378,45.542325],[-122.783423,45.543577],[-122.782761,45.543849],[-122.782426,45.543612],[-122.782108,45.544091],[-122.779538,45.542404],[-122.780495,45.545365],[-122.780807,45.546151],[-122.780157,45.546187],[-122.777344,45.544673],[-122.77681,45.545187],[-122.778414,45.546008],[-122.77833,45.548388],[-122.784702,45.548429],[-122.784704,45.555715],[-122.783294,45.555744],[-122.782792,45.556516],[-122.782365,45.55673],[-122.782166,45.556909],[-122.780988,45.557634],[-122.77972,45.557087],[-122.779575,45.556991],[-122.77949,45.557054],[-122.779616,45.569947],[-122.774443,45.569814],[-122.774353,45.562758],[-122.763597,45.55493],[-122.7637,45.548068],[-122.747229,45.548156],[-122.747284,45.544344],[-122.746989,45.544304],[-122.74655,45.544175],[-122.746129,45.543924],[-122.74557,45.543485],[-122.745383,45.543405],[-122.745241,45.543393],[-122.745026,45.543458],[-122.744575,45.543878],[-122.744331,45.54402],[-122.74417,45.544062],[-122.743854,45.544037],[-122.743645,45.543958],[-122.742295,45.543245],[-122.740258,45.541852],[-122.740165,45.54465],[-122.739894,45.544656],[-122.739734,45.54472],[-122.739439,45.544962],[-122.739234,45.544981],[-122.737686,45.544798],[-122.737458,45.544795],[-122.737321,45.544919],[-122.737141,45.545327],[-122.737167,45.545448],[-122.737291,45.54556],[-122.73753,45.545578],[-122.737679,45.545492],[-122.737761,45.545368],[-122.737878,45.54529],[-122.738384,45.545196],[-122.738517,45.545254],[-122.738632,45.54545],[-122.738765,45.545509],[-122.73911,45.545456],[-122.739209,45.545485],[-122.739288,45.545582],[-122.739249,45.54569],[-122.738597,45.545969],[-122.738536,45.546069],[-122.738616,45.546182],[-122.738804,45.546278],[-122.738798,45.546423],[-122.73867,45.546463],[-122.738203,45.546457],[-122.738063,45.546505],[-122.737885,45.546661],[-122.737616,45.546728],[-122.737467,45.546822],[-122.73745,45.546937],[-122.737355,45.547015],[-122.737173,45.547072],[-122.737132,45.547156],[-122.737191,45.547269],[-122.737162,45.547369],[-122.737055,45.547425],[-122.736384,45.547453],[-122.736179,45.547503],[-122.735485,45.547806],[-122.735161,45.547858],[-122.734974,45.547793],[-122.73523,45.547666],[-122.735325,45.54758],[-122.735343,45.547488],[-122.735319,45.54742],[-122.735207,45.547331],[-122.735,45.547305],[-122.73395,45.547378],[-122.733786,45.547359],[-122.733642,45.547278],[-122.733595,45.547172],[-122.733766,45.546505],[-122.73375,45.546369],[-122.729195,45.549407],[-122.729128,45.549355],[-122.727937,45.550026],[-122.728217,45.550272],[-122.726608,45.552269],[-122.72522,45.551709],[-122.72333,45.554025],[-122.723313,45.557135],[-122.723375,45.562408],[-122.708771,45.554215],[-122.6947,45.54774],[-122.687296,45.540702],[-122.68289,45.537935],[-122.674122,45.531837],[-122.669007,45.527719],[-122.668929,45.527644],[-122.668881,45.527523],[-122.667887,45.52306],[-122.668197,45.520494],[-122.669535,45.517846],[-122.670944,45.513239],[-122.669624,45.50754],[-122.666434,45.501084],[-122.67434,45.500493],[-122.676241,45.500304],[-122.67887,45.50014],[-122.680541,45.500161],[-122.680179,45.499444],[-122.678919,45.497258],[-122.678543,45.496449],[-122.677996,45.495698],[-122.677411,45.495099],[-122.677103,45.494381],[-122.676872,45.493349],[-122.676857,45.49293],[-122.676881,45.492693],[-122.676956,45.492379],[-122.67715,45.492048],[-122.67742,45.491715],[-122.67784,45.491333],[-122.678519,45.490894],[-122.678936,45.490733],[-122.679419,45.490595],[-122.680333,45.490402],[-122.681278,45.490148],[-122.681789,45.489879],[-122.682242,45.48952],[-122.684726,45.489556],[-122.684702,45.490403],[-122.686557,45.490421],[-122.686591,45.490466],[-122.690137,45.490489]],[[-122.701309,45.524001],[-122.701977,45.524171],[-122.700904,45.523895],[-122.701309,45.524001]],[[-122.728489,45.520923],[-122.728488,45.520916],[-122.728479,45.520946],[-122.728489,45.520923]],[[-122.740375,45.535005],[-122.740706,45.534579],[-122.740606,45.534513],[-122.740695,45.53458],[-122.740375,45.535005]]]]}},{"type":"Feature","properties":{"name":"McDaniel High School","school_label":"McDaniel High School Spanish Immersion, Vietnamese Immersion","cluster":"McDaniel","level":"9-12","area_sqmi":10.33},"geometry":{"type":"MultiPolygon","coordinates":[[[[-122.562974,45.542388],[-122.559512,45.542366],[-122.559661,45.541304],[-122.559813,45.539365],[-122.559954,45.53809],[-122.560183,45.537156],[-122.560528,45.536441],[-122.561108,45.5356],[-122.561893,45.534763],[-122.562337,45.534412],[-122.563598,45.533521],[-122.568413,45.533479],[-122.568601,45.522661],[-122.568588,45.522586],[-122.567362,45.522585],[-122.567404,45.520275],[-122.567794,45.520283],[-122.567804,45.520237],[-122.567977,45.520226],[-122.567995,45.520119],[-122.568624,45.520123],[-122.568653,45.5184],[-122.564434,45.518415],[-122.564405,45.514026],[-122.563657,45.514017],[-122.563741,45.51105],[-122.563786,45.507536],[-122.567268,45.507572],[-122.567282,45.504463],[-122.552929,45.504256],[-122.552963,45.50203],[-122.55305,45.502028],[-122.553068,45.499658],[-122.558154,45.499665],[-122.558218,45.49705],[-122.563815,45.497132],[-122.563822,45.496393],[-122.564452,45.496412],[-122.56471,45.495379],[-122.564897,45.493546],[-122.563369,45.493543],[-122.560613,45.493471],[-122.560631,45.493371],[-122.560814,45.493025],[-122.560832,45.491615],[-122.558293,45.491546],[-122.558321,45.489808],[-122.566611,45.490017],[-122.571405,45.490091],[-122.573879,45.490168],[-122.574934,45.490263],[-122.576776,45.490252],[-122.576787,45.491525],[-122.578619,45.49153],[-122.578767,45.491428],[-122.578713,45.4962],[-122.578667,45.497428],[-122.578673,45.499188],[-122.578632,45.500523],[-122.578654,45.502154],[-122.578622,45.503427],[-122.578597,45.511331],[-122.578672,45.513532],[-122.578899,45.517674],[-122.578949,45.519151],[-122.588561,45.519221],[-122.588477,45.519283],[-122.588466,45.519916],[-122.58856,45.520135],[-122.588551,45.520196],[-122.588499,45.520258],[-122.58837,45.520291],[-122.58811,45.520288],[-122.587982,45.520367],[-122.588049,45.520426],[-122.588854,45.520816],[-122.590795,45.521725],[-122.591806,45.522119],[-122.591866,45.522285],[-122.59183,45.523132],[-122.592644,45.523163],[-122.597036,45.523128],[-122.598449,45.522889],[-122.602224,45.522888],[-122.602149,45.527973],[-122.602105,45.528904],[-122.603054,45.528414],[-122.603705,45.52812],[-122.604681,45.52779],[-122.605038,45.5284],[-122.605033,45.530138],[-122.604979,45.530467],[-122.604954,45.531938],[-122.604887,45.532199],[-122.604864,45.533731],[-122.614868,45.533783],[-122.614835,45.541603],[-122.613815,45.541599],[-122.613492,45.541666],[-122.613353,45.541737],[-122.61292,45.541753],[-122.612255,45.541674],[-122.611828,45.541567],[-122.611535,45.541573],[-122.611128,45.54171],[-122.610821,45.541929],[-122.610766,45.541602],[-122.61063,45.541437],[-122.610509,45.54137],[-122.610268,45.541329],[-122.607501,45.541311],[-122.607513,45.541029],[-122.604419,45.54226],[-122.604457,45.542419],[-122.604387,45.548258],[-122.609467,45.548287],[-122.609535,45.548377],[-122.609549,45.549413],[-122.609514,45.551868],[-122.614779,45.551901],[-122.614729,45.555468],[-122.614691,45.555629],[-122.614637,45.559098],[-122.614698,45.55928],[-122.614684,45.560438],[-122.614043,45.560435],[-122.613994,45.562791],[-122.620237,45.56282],[-122.627421,45.562764],[-122.627417,45.563907],[-122.62428,45.563912],[-122.624279,45.564506],[-122.624361,45.564672],[-122.624344,45.565122],[-122.624455,45.565204],[-122.624454,45.566416],[-122.624194,45.566421],[-122.62419,45.568197],[-122.624313,45.568278],[-122.62432,45.570054],[-122.624581,45.570049],[-122.624583,45.571367],[-122.624137,45.571665],[-122.62418,45.575086],[-122.622044,45.575461],[-122.622054,45.577633],[-122.620222,45.578658],[-122.620221,45.589259],[-122.619359,45.589153],[-122.618787,45.588615],[-122.618279,45.588388],[-122.617363,45.58826],[-122.616615,45.588289],[-122.615161,45.588659],[-122.615042,45.588661],[-122.615069,45.586298],[-122.615042,45.585216],[-122.615063,45.579858],[-122.613988,45.579863],[-122.612716,45.580755],[-122.611447,45.579864],[-122.60477,45.579864],[-122.602314,45.57885],[-122.59942,45.578057],[-122.598042,45.578082],[-122.596217,45.578695],[-122.597423,45.579968],[-122.595696,45.579962],[-122.595707,45.577127],[-122.586394,45.577182],[-122.575079,45.577143],[-122.575094,45.573424],[-122.573672,45.573427],[-122.565384,45.573302],[-122.565395,45.56975],[-122.566741,45.569772],[-122.5671,45.5685],[-122.567926,45.568523],[-122.567969,45.562738],[-122.578279,45.562689],[-122.578485,45.55245],[-122.575798,45.553542],[-122.575794,45.553421],[-122.575846,45.55111],[-122.578494,45.551116],[-122.578524,45.551024],[-122.578532,45.549987],[-122.569404,45.549962],[-122.56937,45.552813],[-122.569164,45.552816],[-122.568061,45.5526],[-122.568088,45.552127],[-122.565689,45.551134],[-122.565313,45.550919],[-122.563562,45.549526],[-122.563029,45.549162],[-122.562928,45.549049],[-122.562832,45.548792],[-122.562889,45.548555],[-122.563067,45.548353],[-122.563194,45.548275],[-122.563484,45.548186],[-122.563842,45.548172],[-122.564332,45.548232],[-122.564698,45.548134],[-122.567237,45.548134],[-122.567445,45.547871],[-122.567516,45.547709],[-122.567631,45.54725],[-122.568147,45.546471],[-122.568152,45.546311],[-122.568323,45.546209],[-122.568373,45.546109],[-122.568381,45.546025],[-122.568252,45.54541],[-122.568303,45.54499],[-122.568298,45.544845],[-122.568238,45.544678],[-122.568146,45.544512],[-122.562948,45.544499],[-122.562974,45.542388]],[[-122.562974,45.542388],[-122.564667,45.542388],[-122.564703,45.540878],[-122.563,45.540878],[-122.562974,45.542388]]]]}},{"type":"Feature","properties":{"name":"Roosevelt High School","school_label":"Roosevelt High School Spanish Immersion","cluster":"Roosevelt","level":"9-12","area_sqmi":55.09},"geometry":{"type":"MultiPolygon","coordinates":[[[[-122.82295,45.641894],[-122.821248,45.636566],[-122.820119,45.633197],[-122.8186,45.630689],[-122.816413,45.627792],[-122.815091,45.626462],[-122.809474,45.622802],[-122.804568,45.620385],[-122.801476,45.619639],[-122.798305,45.619413],[-122.796712,45.619529],[-122.795154,45.619697],[-122.793694,45.619894],[-122.792497,45.620116],[-122.792205,45.620739],[-122.791767,45.621807],[-122.790396,45.626362],[-122.790303,45.627919],[-122.788844,45.631317],[-122.788001,45.632865],[-122.786809,45.634711],[-122.773212,45.634714],[-122.759682,45.63476],[-122.753355,45.634724],[-122.743323,45.634722],[-122.743298,45.636384],[-122.741951,45.635252],[-122.739578,45.633659],[-122.738172,45.632673],[-122.737127,45.631733],[-122.735357,45.630609],[-122.733095,45.629098],[-122.732035,45.628044],[-122.730883,45.627434],[-122.730072,45.626665],[-122.729369,45.626175],[-122.728281,45.625823],[-122.72595,45.624489],[-122.723251,45.623207],[-122.717748,45.62009],[-122.715514,45.61902],[-122.714269,45.618564],[-122.713948,45.618395],[-122.712196,45.617712],[-122.711056,45.617445],[-122.710538,45.617249],[-122.709682,45.616717],[-122.709429,45.616638],[-122.709251,45.616504],[-122.708624,45.61631],[-122.708136,45.616015],[-122.707704,45.615809],[-122.706371,45.615294],[-122.705976,45.61518],[-122.70517,45.614837],[-122.704915,45.614682],[-122.70389,45.614297],[-122.703723,45.614179],[-122.703509,45.613962],[-122.702723,45.613573],[-122.702976,45.613339],[-122.703945,45.613694],[-122.704723,45.612391],[-122.704858,45.612213],[-122.719162,45.600475],[-122.718765,45.600315],[-122.718288,45.60005],[-122.716598,45.598985],[-122.715592,45.598204],[-122.714556,45.597493],[-122.712874,45.596618],[-122.71206,45.596344],[-122.709994,45.595972],[-122.709336,45.595817],[-122.708137,45.595383],[-122.707005,45.595016],[-122.706598,45.594895],[-122.705854,45.594741],[-122.704777,45.594693],[-122.70354,45.594725],[-122.702418,45.594624],[-122.70162,45.594495],[-122.700839,45.594205],[-122.698503,45.593594],[-122.695653,45.592551],[-122.694221,45.591992],[-122.693178,45.591699],[-122.689153,45.59029],[-122.688561,45.590126],[-122.685385,45.589409],[-122.684802,45.589199],[-122.684095,45.588847],[-122.683193,45.588536],[-122.682394,45.588353],[-122.680816,45.588284],[-122.678693,45.583561],[-122.678492,45.58249],[-122.678391,45.581189],[-122.678434,45.577232],[-122.681895,45.577144],[-122.702568,45.577153],[-122.702618,45.577045],[-122.702621,45.573212],[-122.703629,45.573771],[-122.704092,45.573961],[-122.705673,45.574441],[-122.707765,45.574965],[-122.708846,45.575119],[-122.712718,45.575311],[-122.714086,45.575315],[-122.718402,45.574569],[-122.720085,45.57398],[-122.721237,45.573409],[-122.721047,45.57326],[-122.721619,45.572876],[-122.723853,45.570737],[-122.730788,45.566517],[-122.723375,45.562408],[-122.723313,45.557135],[-122.72333,45.554025],[-122.72522,45.551709],[-122.726608,45.552269],[-122.728217,45.550272],[-122.727937,45.550026],[-122.729128,45.549355],[-122.729195,45.549407],[-122.73375,45.546369],[-122.733766,45.546505],[-122.733595,45.547172],[-122.733642,45.547278],[-122.733786,45.547359],[-122.73395,45.547378],[-122.735,45.547305],[-122.735207,45.547331],[-122.735319,45.54742],[-122.735343,45.547488],[-122.735325,45.54758],[-122.73523,45.547666],[-122.734974,45.547793],[-122.735161,45.547858],[-122.735485,45.547806],[-122.736179,45.547503],[-122.736384,45.547453],[-122.737055,45.547425],[-122.737162,45.547369],[-122.737191,45.547269],[-122.737132,45.547156],[-122.737173,45.547072],[-122.737355,45.547015],[-122.73745,45.546937],[-122.737467,45.546822],[-122.737616,45.546728],[-122.737885,45.546661],[-122.738063,45.546505],[-122.738203,45.546457],[-122.73867,45.546463],[-122.738798,45.546423],[-122.738804,45.546278],[-122.738616,45.546182],[-122.738536,45.546069],[-122.738597,45.545969],[-122.739249,45.54569],[-122.739288,45.545582],[-122.739209,45.545485],[-122.73911,45.545456],[-122.738765,45.545509],[-122.738632,45.54545],[-122.738517,45.545254],[-122.738384,45.545196],[-122.737878,45.54529],[-122.737761,45.545368],[-122.737679,45.545492],[-122.73753,45.545578],[-122.737291,45.54556],[-122.737167,45.545448],[-122.737141,45.545327],[-122.737321,45.544919],[-122.737458,45.544795],[-122.737686,45.544798],[-122.739234,45.544981],[-122.739439,45.544962],[-122.739734,45.54472],[-122.739894,45.544656],[-122.740165,45.54465],[-122.740258,45.541852],[-122.742295,45.543245],[-122.743645,45.543958],[-122.743854,45.544037],[-122.74417,45.544062],[-122.744331,45.54402],[-122.744575,45.543878],[-122.745026,45.543458],[-122.745241,45.543393],[-122.745383,45.543405],[-122.74557,45.543485],[-122.746129,45.543924],[-122.74655,45.544175],[-122.746989,45.544304],[-122.747284,45.544344],[-122.747229,45.548156],[-122.7637,45.548068],[-122.763597,45.55493],[-122.774353,45.562758],[-122.774443,45.569814],[-122.779616,45.569947],[-122.77949,45.557054],[-122.779575,45.556991],[-122.77972,45.557087],[-122.780988,45.557634],[-122.782166,45.556909],[-122.782365,45.55673],[-122.782792,45.556516],[-122.783294,45.555744],[-122.784704,45.555715],[-122.805401,45.555683],[-122.80536,45.562886],[-122.817806,45.563039],[-122.820323,45.562988],[-122.825835,45.563048],[-122.825771,45.565171],[-122.826025,45.577502],[-122.836341,45.577475],[-122.846634,45.577521],[-122.846526,45.584594],[-122.846561,45.591906],[-122.867256,45.591919],[-122.867212,45.606267],[-122.877532,45.60618],[-122.887626,45.606394],[-122.887578,45.620519],[-122.887556,45.620631],[-122.890918,45.620615],[-122.891211,45.620646],[-122.903206,45.62067],[-122.90853,45.620724],[-122.908863,45.628011],[-122.908828,45.633613],[-122.908848,45.635213],[-122.918442,45.635361],[-122.928713,45.63527],[-122.928807,45.642488],[-122.928787,45.642619],[-122.92885,45.649744],[-122.928838,45.656946],[-122.928876,45.66409],[-122.928926,45.665764],[-122.928947,45.671383],[-122.919057,45.671279],[-122.919108,45.671799],[-122.919321,45.672985],[-122.918931,45.673719],[-122.918534,45.678342],[-122.928793,45.678401],[-122.928959,45.692912],[-122.921428,45.692869],[-122.90856,45.69266],[-122.888087,45.6925],[-122.888107,45.696444],[-122.888208,45.703327],[-122.888183,45.706881],[-122.882962,45.706936],[-122.877971,45.706818],[-122.87312,45.706845],[-122.872433,45.706897],[-122.871508,45.702265],[-122.871452,45.700424],[-122.871017,45.698423],[-122.870859,45.697273],[-122.870963,45.694871],[-122.871226,45.694251],[-122.871466,45.693092],[-122.871492,45.692496],[-122.868122,45.692437],[-122.867957,45.691696],[-122.867475,45.690422],[-122.866416,45.686909],[-122.866024,45.684685],[-122.866047,45.681651],[-122.867198,45.678389],[-122.867667,45.676444],[-122.867452,45.675779],[-122.866608,45.674699],[-122.865984,45.673782],[-122.862451,45.671827],[-122.860406,45.670549],[-122.858718,45.668947],[-122.857681,45.667089],[-122.856893,45.666064],[-122.856178,45.664907],[-122.85478,45.663857],[-122.851171,45.661364],[-122.849019,45.660032],[-122.847702,45.659018],[-122.844639,45.65629],[-122.842436,45.654419],[-122.840374,45.653309],[-122.835461,45.651848],[-122.832174,45.650613],[-122.829074,45.649393],[-122.827132,45.648019],[-122.825777,45.646726],[-122.824878,45.645554],[-122.824077,45.644212],[-122.823222,45.642257],[-122.822943,45.64138],[-122.82295,45.641894]]]]}},{"type":"Feature","properties":{"name":"Wells-Barnett High School","school_label":"Wells-Barnett High School","cluster":"Wells-Barnett","level":"9-12","area_sqmi":15.67},"geometry":{"type":"MultiPolygon","coordinates":[[[[-122.716139,45.433085],[-122.719487,45.433119],[-122.719507,45.433066],[-122.719691,45.432467],[-122.719679,45.432148],[-122.719585,45.431951],[-122.719304,45.431659],[-122.718348,45.430977],[-122.718678,45.430833],[-122.718883,45.430814],[-122.719232,45.430868],[-122.719715,45.431049],[-122.720135,45.43127],[-122.720402,45.431463],[-122.720952,45.432009],[-122.722187,45.433501],[-122.722564,45.433753],[-122.723068,45.433903],[-122.724514,45.434058],[-122.724733,45.434115],[-122.725448,45.434429],[-122.725841,45.43452],[-122.726264,45.43452],[-122.726597,45.43446],[-122.730066,45.433341],[-122.730505,45.433225],[-122.733656,45.433194],[-122.735358,45.433237],[-122.739084,45.433241],[-122.743959,45.433298],[-122.743911,45.441393],[-122.743879,45.444664],[-122.743849,45.445312],[-122.7438,45.454878],[-122.743823,45.458148],[-122.743799,45.460145],[-122.743839,45.462096],[-122.743768,45.467539],[-122.743772,45.473233],[-122.743799,45.474261],[-122.743759,45.474658],[-122.743746,45.475474],[-122.743886,45.475448],[-122.743877,45.475212],[-122.745059,45.475212],[-122.745057,45.475471],[-122.744916,45.475466],[-122.744918,45.475527],[-122.744624,45.475777],[-122.744482,45.475749],[-122.744396,45.475469],[-122.743951,45.475462],[-122.743948,45.475958],[-122.743731,45.475954],[-122.743727,45.476442],[-122.743793,45.476449],[-122.7438,45.477531],[-122.743761,45.478225],[-122.743797,45.480084],[-122.743788,45.484566],[-122.743826,45.485899],[-122.743855,45.49256],[-122.743623,45.493045],[-122.743477,45.493764],[-122.743284,45.494423],[-122.742951,45.495108],[-122.742756,45.495394],[-122.742329,45.495875],[-122.741837,45.496349],[-122.741173,45.496865],[-122.740343,45.497286],[-122.740216,45.497379],[-122.740079,45.497489],[-122.739842,45.497829],[-122.739843,45.498141],[-122.740102,45.4987],[-122.740135,45.499004],[-122.740232,45.499277],[-122.740593,45.499674],[-122.74072,45.49987],[-122.741237,45.500972],[-122.741235,45.501216],[-122.741188,45.501392],[-122.741086,45.501585],[-122.740441,45.502306],[-122.740209,45.502494],[-122.739535,45.502736],[-122.738257,45.503073],[-122.737818,45.503226],[-122.736643,45.504019],[-122.736424,45.50426],[-122.736209,45.504599],[-122.735036,45.504561],[-122.735108,45.504156],[-122.735302,45.503817],[-122.73546,45.503692],[-122.735889,45.503569],[-122.736118,45.503313],[-122.736115,45.503214],[-122.73522,45.502774],[-122.736603,45.501162],[-122.735768,45.501163],[-122.734523,45.502689],[-122.734249,45.502618],[-122.734189,45.502451],[-122.733589,45.502653],[-122.73358,45.500931],[-122.732951,45.500928],[-122.732948,45.500547],[-122.732265,45.500545],[-122.732261,45.500439],[-122.731133,45.50043],[-122.731142,45.500971],[-122.730307,45.500964],[-122.730323,45.500819],[-122.729725,45.500762],[-122.729705,45.49933],[-122.729719,45.498514],[-122.729747,45.498399],[-122.729134,45.497946],[-122.727855,45.497956],[-122.727265,45.498135],[-122.726436,45.498288],[-122.726132,45.498286],[-122.725609,45.498205],[-122.724659,45.498315],[-122.724005,45.498541],[-122.722894,45.498997],[-122.722447,45.499212],[-122.720421,45.498976],[-122.719625,45.499137],[-122.719271,45.499243],[-122.719026,45.499354],[-122.718314,45.499772],[-122.717783,45.500354],[-122.717696,45.500348],[-122.717089,45.50007],[-122.716861,45.500051],[-122.716282,45.50023],[-122.71491,45.500973],[-122.714203,45.501498],[-122.71362,45.501882],[-122.71323,45.502195],[-122.712115,45.501645],[-122.71182,45.501574],[-122.711288,45.501554],[-122.711155,45.501488],[-122.711021,45.501369],[-122.710881,45.501112],[-122.710974,45.500973],[-122.710965,45.500135],[-122.71103,45.499524],[-122.711004,45.49941],[-122.710656,45.498487],[-122.710001,45.497471],[-122.709246,45.496982],[-122.708642,45.496453],[-122.708354,45.496298],[-122.707982,45.496191],[-122.707414,45.496095],[-122.707109,45.496055],[-122.706263,45.496034],[-122.706087,45.495961],[-122.706028,45.49584],[-122.706095,45.495595],[-122.706244,45.495516],[-122.706732,45.494919],[-122.706762,45.494858],[-122.70668,45.494692],[-122.70646,45.494604],[-122.706004,45.494568],[-122.705409,45.494609],[-122.704807,45.494758],[-122.70459,45.49474],[-122.704402,45.494652],[-122.70432,45.49447],[-122.704416,45.494126],[-122.704423,45.494026],[-122.704387,45.493936],[-122.704264,45.493831],[-122.703644,45.493782],[-122.703511,45.493701],[-122.703463,45.493565],[-122.703553,45.493052],[-122.703515,45.492908],[-122.703277,45.492608],[-122.702986,45.49237],[-122.70258,45.492217],[-122.702253,45.492193],[-122.702102,45.492204],[-122.701437,45.492407],[-122.700832,45.492457],[-122.700829,45.492388],[-122.700605,45.492179],[-122.700609,45.491988],[-122.700746,45.491589],[-122.700729,45.491399],[-122.700572,45.491257],[-122.699958,45.491071],[-122.699721,45.490816],[-122.699571,45.490575],[-122.699549,45.490263],[-122.699512,45.490135],[-122.699433,45.490037],[-122.699332,45.489947],[-122.698905,45.489826],[-122.698465,45.489644],[-122.698346,45.489357],[-122.69505,45.489344],[-122.695055,45.489481],[-122.694397,45.489569],[-122.692456,45.489569],[-122.692454,45.489515],[-122.691641,45.489508],[-122.691264,45.489279],[-122.691031,45.489428],[-122.690541,45.489384],[-122.690137,45.490489],[-122.686591,45.490466],[-122.686557,45.490421],[-122.684702,45.490403],[-122.684726,45.489556],[-122.682242,45.48952],[-122.681789,45.489879],[-122.681278,45.490148],[-122.680333,45.490402],[-122.679419,45.490595],[-122.678936,45.490733],[-122.678519,45.490894],[-122.67784,45.491333],[-122.67742,45.491715],[-122.67715,45.492048],[-122.676956,45.492379],[-122.676881,45.492693],[-122.676857,45.49293],[-122.676872,45.493349],[-122.677103,45.494381],[-122.677411,45.495099],[-122.677996,45.495698],[-122.678543,45.496449],[-122.678919,45.497258],[-122.680179,45.499444],[-122.680541,45.500161],[-122.67887,45.50014],[-122.676241,45.500304],[-122.67434,45.500493],[-122.666434,45.501084],[-122.66596,45.499028],[-122.666697,45.495333],[-122.668205,45.491714],[-122.669313,45.487806],[-122.66936,45.485755],[-122.669129,45.484746],[-122.669146,45.484624],[-122.669106,45.484411],[-122.668843,45.48341],[-122.666457,45.471154],[-122.665727,45.46555],[-122.663948,45.461506],[-122.674589,45.461526],[-122.674724,45.458627],[-122.674712,45.458277],[-122.674976,45.452921],[-122.674598,45.452662],[-122.672949,45.451367],[-122.672826,45.451255],[-122.672686,45.450975],[-122.67285,45.447055],[-122.672863,45.446811],[-122.672893,45.446749],[-122.673079,45.442546],[-122.673588,45.432803],[-122.685579,45.432857],[-122.70223,45.43298],[-122.702385,45.432786],[-122.702601,45.43218],[-122.703973,45.432367],[-122.704204,45.432469],[-122.704584,45.432797],[-122.705167,45.433038],[-122.707214,45.433646],[-122.707626,45.433669],[-122.707874,45.433626],[-122.708152,45.433521],[-122.708469,45.43331],[-122.708945,45.43359],[-122.70933,45.43375],[-122.709592,45.433829],[-122.710268,45.433953],[-122.710951,45.433963],[-122.711523,45.433906],[-122.712294,45.433678],[-122.712617,45.433618],[-122.713301,45.433673],[-122.713575,45.43376],[-122.713774,45.433863],[-122.71434,45.434233],[-122.715273,45.434588],[-122.715661,45.434824],[-122.716395,45.43417],[-122.71656,45.433923],[-122.716599,45.433808],[-122.716573,45.433702],[-122.716313,45.433402],[-122.716139,45.433085]],[[-122.711643,45.484741],[-122.711486,45.484897],[-122.711651,45.484743],[-122.711643,45.484741]]]]}}]}