{"type":"FeatureCollection","features":[{"type":"Feature","properties":{"name":"Cleveland High School","school_label":"Cleveland High School Mandarin Immersion","cluster":"Cleveland","level":"9-12","area_sqmi":12.83},"geometry":{"type":"MultiPolygon","coordinates":[[[[-122.665614,45.535115],[-122.644726,45.535035],[-122.644758,45.530073],[-122.636148,45.530492],[-122.635264,45.530661],[-122.634792,45.530807],[-122.634428,45.530326],[-122.634391,45.530205],[-122.634418,45.522888],[-122.641359,45.52288],[-122.64143,45.519335],[-122.639033,45.519327],[-122.63907,45.516978],[-122.642443,45.516984],[-122.642466,45.513615],[-122.64341,45.51362],[-122.643409,45.512988],[-122.643483,45.51291],[-122.643497,45.512094],[-122.622771,45.512061],[-122.622598,45.505502],[-122.622599,45.500525],[-122.626199,45.500527],[-122.626206,45.49981],[-122.628548,45.499813],[-122.628556,45.499096],[-122.626203,45.499102],[-122.626186,45.497059],[-122.625873,45.49708],[-122.625806,45.496716],[-122.62576,45.496648],[-122.624441,45.496139],[-122.624104,45.496092],[-122.622629,45.496081],[-122.622631,45.493345],[-122.619205,45.49334],[-122.619018,45.493252],[-122.618947,45.493093],[-122.618981,45.490311],[-122.605679,45.490297],[-122.605703,45.4891],[-122.605657,45.489032],[-122.605672,45.487896],[-122.604025,45.487896],[-122.604059,45.485426],[-122.604688,45.485429],[-122.604721,45.483874],[-122.602141,45.483876],[-122.602157,45.483068],[-122.599588,45.483061],[-122.599626,45.480081],[-122.597047,45.480074],[-122.597095,45.477383],[-122.594505,45.477385],[-122.594492,45.478262],[-122.591316,45.478251],[-122.591327,45.475423],[-122.592303,45.475421],[-122.592297,45.475886],[-122.598419,45.475842],[-122.604857,45.475839],[-122.604837,45.468652],[-122.594272,45.468655],[-122.594268,45.471094],[-122.588992,45.471129],[-122.588742,45.471119],[-122.58825,45.47099],[-122.579105,45.471027],[-122.579098,45.463482],[-122.579195,45.461529],[-122.585532,45.461498],[-122.586909,45.461534],[-122.589445,45.461533],[-122.602749,45.461488],[-122.610909,45.461521],[-122.619499,45.461453],[-122.640478,45.461498],[-122.641507,45.461478],[-122.641493,45.460153],[-122.641356,45.458715],[-122.643239,45.458672],[-122.646989,45.458701],[-122.646625,45.45572],[-122.652668,45.455355],[-122.653033,45.45832],[-122.658471,45.457989],[-122.661058,45.457628],[-122.662448,45.459233],[-122.663937,45.461499],[-122.664608,45.461502],[-122.664997,45.462996],[-122.66533,45.46353],[-122.666018,45.465514],[-122.666557,45.468469],[-122.666401,45.472938],[-122.665989,45.47569],[-122.666566,45.477287],[-122.667973,45.478762],[-122.669085,45.480463],[-122.669563,45.482322],[-122.669789,45.485953],[-122.669255,45.489522],[-122.666556,45.49596],[-122.665461,45.500234],[-122.665366,45.502149],[-122.66548,45.502924],[-122.667739,45.506357],[-122.669746,45.510046],[-122.670568,45.512438],[-122.670532,45.513567],[-122.670405,45.514255],[-122.669963,45.516154],[-122.669478,45.517779],[-122.668378,45.519789],[-122.66776,45.52224],[-122.667551,45.523974],[-122.667866,45.526429],[-122.674058,45.531868],[-122.671366,45.533352],[-122.668315,45.535102],[-122.665614,45.535115]]]]}},{"type":"Feature","properties":{"name":"Franklin High School","school_label":"Franklin High School Russian Immersion, Spanish Immersion","cluster":"Franklin","level":"9-12","area_sqmi":9.44},"geometry":{"type":"MultiPolygon","coordinates":[[[[-122.596286,45.531944],[-122.596378,45.528285],[-122.596985,45.528296],[-122.596989,45.52649],[-122.593355,45.526488],[-122.59336,45.525383],[-122.592351,45.525378],[-122.592363,45.524151],[-122.591832,45.524153],[-122.591851,45.522171],[-122.591531,45.522002],[-122.590806,45.521733],[-122.589792,45.521264],[-122.587982,45.520367],[-122.58811,45.520288],[-122.58837,45.520291],[-122.588499,45.520258],[-122.588551,45.520196],[-122.58856,45.520135],[-122.588466,45.519916],[-122.588477,45.519283],[-122.588561,45.519221],[-122.578971,45.519151],[-122.578672,45.513532],[-122.578594,45.511247],[-122.578642,45.500523],[-122.578767,45.491428],[-122.578619,45.49153],[-122.576798,45.491525],[-122.576768,45.490977],[-122.576776,45.490252],[-122.574944,45.490263],[-122.573901,45.490167],[-122.571405,45.490091],[-122.5666,45.490017],[-122.558321,45.489808],[-122.555741,45.489801],[-122.555728,45.489085],[-122.555099,45.489081],[-122.555104,45.488906],[-122.553153,45.48891],[-122.553156,45.488026],[-122.554685,45.488037],[-122.554846,45.488003],[-122.558314,45.487987],[-122.558278,45.483681],[-122.553156,45.483834],[-122.553166,45.482813],[-122.552824,45.482651],[-122.552836,45.481721],[-122.552902,45.481728],[-122.552913,45.481407],[-122.55294,45.478343],[-122.558306,45.478361],[-122.558325,45.476989],[-122.555565,45.476459],[-122.555571,45.475362],[-122.555777,45.475358],[-122.555799,45.471798],[-122.553232,45.471844],[-122.553228,45.471395],[-122.555787,45.471128],[-122.555804,45.470007],[-122.556302,45.470006],[-122.556298,45.469564],[-122.55581,45.46955],[-122.555812,45.468971],[-122.556397,45.468968],[-122.556474,45.468661],[-122.556604,45.468659],[-122.556589,45.468217],[-122.555798,45.468232],[-122.555806,45.467477],[-122.557204,45.467482],[-122.557213,45.467756],[-122.557484,45.467752],[-122.557475,45.467485],[-122.558363,45.467477],[-122.55837,45.465411],[-122.558677,45.465528],[-122.559244,45.465639],[-122.559265,45.464633],[-122.553209,45.464673],[-122.553196,45.461068],[-122.558311,45.461076],[-122.568788,45.461382],[-122.572104,45.461406],[-122.579195,45.461529],[-122.579098,45.463482],[-122.579105,45.471027],[-122.58825,45.47099],[-122.588742,45.471119],[-122.588992,45.471129],[-122.594268,45.471094],[-122.594272,45.468655],[-122.604837,45.468652],[-122.604857,45.475839],[-122.598419,45.475842],[-122.592297,45.475886],[-122.592303,45.475421],[-122.591327,45.475423],[-122.591316,45.478251],[-122.594492,45.478262],[-122.594505,45.477385],[-122.597095,45.477383],[-122.597047,45.480074],[-122.599626,45.480081],[-122.599588,45.483061],[-122.602157,45.483068],[-122.602141,45.483876],[-122.604721,45.483874],[-122.604688,45.485429],[-122.604059,45.485426],[-122.604025,45.487896],[-122.605672,45.487896],[-122.605657,45.489032],[-122.605703,45.4891],[-122.605679,45.490297],[-122.618981,45.490311],[-122.618947,45.493093],[-122.619018,45.493252],[-122.619205,45.49334],[-122.622631,45.493345],[-122.622629,45.496081],[-122.624104,45.496092],[-122.624441,45.496139],[-122.62576,45.496648],[-122.625806,45.496716],[-122.625873,45.49708],[-122.626186,45.497059],[-122.626203,45.499102],[-122.628556,45.499096],[-122.628548,45.499813],[-122.626206,45.49981],[-122.626199,45.500527],[-122.622599,45.500525],[-122.622598,45.505502],[-122.622771,45.512061],[-122.643497,45.512094],[-122.643483,45.51291],[-122.643409,45.512988],[-122.64341,45.51362],[-122.642466,45.513615],[-122.642443,45.516984],[-122.63907,45.516978],[-122.639033,45.519327],[-122.64143,45.519335],[-122.641359,45.52288],[-122.634418,45.522888],[-122.634425,45.524344],[-122.631604,45.524335],[-122.631614,45.522132],[-122.629499,45.522141],[-122.628918,45.522259],[-122.628647,45.522279],[-122.627862,45.522156],[-122.627169,45.522177],[-122.625884,45.522353],[-122.624236,45.522696],[-122.62348,45.522786],[-122.622949,45.522804],[-122.622955,45.521721],[-122.622597,45.52172],[-122.622606,45.521362],[-122.619699,45.521362],[-122.619419,45.521398],[-122.618623,45.521596],[-122.618288,45.521632],[-122.617344,45.521635],[-122.617335,45.521993],[-122.616055,45.521978],[-122.616073,45.523137],[-122.615487,45.523132],[-122.614896,45.522991],[-122.614902,45.5244],[-122.613351,45.524399],[-122.61335,45.524688],[-122.612623,45.524686],[-122.612615,45.525098],[-122.611932,45.525095],[-122.611929,45.524379],[-122.607536,45.524376],[-122.607337,45.524288],[-122.605331,45.524287],[-122.605309,45.526505],[-122.604691,45.526509],[-122.604702,45.527781],[-122.604208,45.527928],[-122.603705,45.52812],[-122.603064,45.528414],[-122.596286,45.531944]]]]}},{"type":"Feature","properties":{"name":"Grant High School","school_label":"Grant High School Japanese Immersion","cluster":"Grant","level":"9-12","area_sqmi":4.42},"geometry":{"type":"MultiPolygon","coordinates":[[[[-122.610712,45.586835],[-122.608433,45.588432],[-122.60835,45.588563],[-122.608354,45.588662],[-122.608411,45.58876],[-122.6085,45.588827],[-122.609415,45.589206],[-122.610031,45.589431],[-122.610557,45.589574],[-122.611059,45.589656],[-122.61156,45.5897],[-122.612744,45.589701],[-122.612861,45.589631],[-122.61296,45.589347],[-122.613146,45.589382],[-122.613079,45.589634],[-122.613202,45.589739],[-122.613923,45.589878],[-122.614429,45.590059],[-122.622091,45.593042],[-122.622258,45.593154],[-122.622383,45.593311],[-122.622423,45.593539],[-122.622374,45.593685],[-122.620356,45.59623],[-122.620164,45.596355],[-122.619982,45.596427],[-122.619767,45.596477],[-122.619408,45.596476],[-122.619157,45.596419],[-122.606728,45.591588],[-122.606389,45.591533],[-122.605682,45.591508],[-122.604238,45.591511],[-122.604099,45.59156],[-122.603962,45.591692],[-122.603942,45.592363],[-122.603605,45.592361],[-122.603596,45.592102],[-122.603562,45.592057],[-122.603419,45.592007],[-122.60329,45.592032],[-122.600331,45.594113],[-122.600272,45.594282],[-122.600375,45.594455],[-122.600754,45.594723],[-122.60147,45.595007],[-122.601593,45.595127],[-122.60162,45.595286],[-122.601351,45.595664],[-122.601234,45.595743],[-122.601094,45.595783],[-122.600476,45.595795],[-122.600304,45.595851],[-122.599876,45.596355],[-122.599009,45.596019],[-122.599236,45.596054],[-122.599409,45.596043],[-122.599634,45.595955],[-122.599836,45.595814],[-122.60018,45.595404],[-122.600303,45.595196],[-122.60033,45.595035],[-122.600306,45.59496],[-122.600216,45.59487],[-122.599684,45.594567],[-122.599067,45.594319],[-122.598421,45.594141],[-122.598181,45.59413],[-122.597934,45.594195],[-122.597084,45.594767],[-122.596678,45.594957],[-122.596627,45.595042],[-122.596673,45.59511],[-122.595462,45.594644],[-122.595624,45.594451],[-122.59561,45.594527],[-122.5957,45.594625],[-122.596017,45.594665],[-122.596417,45.594619],[-122.596707,45.594515],[-122.596887,45.594405],[-122.596917,45.59432],[-122.59663,45.594188],[-122.596938,45.593985],[-122.597179,45.594049],[-122.597288,45.594039],[-122.597394,45.593969],[-122.597413,45.5939],[-122.597389,45.593839],[-122.597299,45.593734],[-122.597078,45.593616],[-122.596838,45.59359],[-122.59671,45.593661],[-122.595517,45.593401],[-122.595712,45.593375],[-122.595829,45.593296],[-122.595857,45.593181],[-122.595749,45.593057],[-122.596195,45.592573],[-122.596403,45.592638],[-122.59674,45.592647],[-122.597009,45.592573],[-122.597201,45.592456],[-122.5982,45.59121],[-122.598337,45.591086],[-122.598498,45.591014],[-122.598714,45.590972],[-122.599702,45.590962],[-122.599927,45.590889],[-122.600118,45.590764],[-122.600607,45.590122],[-122.60061,45.589916],[-122.600564,45.589818],[-122.600462,45.589713],[-122.600329,45.589632],[-122.594892,45.587521],[-122.594792,45.587447],[-122.59471,45.587281],[-122.594621,45.587206],[-122.594158,45.587016],[-122.593252,45.586553],[-122.592796,45.586249],[-122.590669,45.58503],[-122.589283,45.584484],[-122.588627,45.584358],[-122.588787,45.584272],[-122.588932,45.584078],[-122.588918,45.583995],[-122.588829,45.583928],[-122.584526,45.582253],[-122.58432,45.582242],[-122.583209,45.582468],[-122.582855,45.582276],[-122.582597,45.582029],[-122.581885,45.582172],[-122.581809,45.581845],[-122.582114,45.58187],[-122.582459,45.581795],[-122.582385,45.581545],[-122.582415,45.581461],[-122.583081,45.581258],[-122.584788,45.579101],[-122.585096,45.579225],[-122.584971,45.57938],[-122.584955,45.579548],[-122.585024,45.579661],[-122.585158,45.57975],[-122.592344,45.582553],[-122.592529,45.582565],[-122.592723,45.582516],[-122.592861,45.582422],[-122.592964,45.582283],[-122.593218,45.582385],[-122.593103,45.582532],[-122.593065,45.582685],[-122.593112,45.58279],[-122.59329,45.582924],[-122.597109,45.584409],[-122.598107,45.584681],[-122.598387,45.584615],[-122.598534,45.584467],[-122.598886,45.584598],[-122.598813,45.584691],[-122.598786,45.584867],[-122.598855,45.58498],[-122.598956,45.585054],[-122.599398,45.585275],[-122.599847,45.585403],[-122.600032,45.585415],[-122.60014,45.58539],[-122.600342,45.585265],[-122.600727,45.585403],[-122.600676,45.58551],[-122.600681,45.58564],[-122.600749,45.585738],[-122.600871,45.585819],[-122.601214,45.586003],[-122.601677,45.586193],[-122.602082,45.586277],[-122.604743,45.586312],[-122.608142,45.586311],[-122.608315,45.586285],[-122.608388,45.5862],[-122.60834,45.586063],[-122.608797,45.585765],[-122.608918,45.585809],[-122.609123,45.585782],[-122.609434,45.585662],[-122.609839,45.585449],[-122.612362,45.58368],[-122.612742,45.583361],[-122.612856,45.583206],[-122.612937,45.583029],[-122.612912,45.582946],[-122.612857,45.582901],[-122.613376,45.582549],[-122.613606,45.582598],[-122.613929,45.5825],[-122.614313,45.582303],[-122.614812,45.581981],[-122.614906,45.58188],[-122.614934,45.581758],[-122.614909,45.581667],[-122.614797,45.581547],[-122.61504,45.581367],[-122.616777,45.582593],[-122.610712,45.586835]],[[-122.598149,45.594138],[-122.598902,45.593598],[-122.59885,45.593691],[-122.598853,45.593767],[-122.598899,45.59385],[-122.599022,45.593931],[-122.599208,45.593989],[-122.599437,45.594],[-122.599674,45.59395],[-122.599834,45.593871],[-122.599749,45.593933],[-122.60257,45.591961],[-122.602663,45.591799],[-122.602625,45.591663],[-122.602513,45.591566],[-122.602403,45.59153],[-122.602035,45.591552],[-122.601657,45.59162],[-122.601177,45.591857],[-122.600751,45.592116],[-122.599691,45.592875],[-122.599385,45.593125],[-122.598912,45.593583],[-122.598149,45.594138]],[[-122.591442,45.583804],[-122.591365,45.583775],[-122.591827,45.583957],[-122.591442,45.583804]],[[-122.591365,45.583775],[-122.584278,45.581023],[-122.584017,45.581013],[-122.583888,45.581038],[-122.583696,45.581148],[-122.583613,45.581256],[-122.583596,45.581409],[-122.583688,45.58156],[-122.583955,45.581745],[-122.584331,45.581921],[-122.590505,45.584339],[-122.590899,45.584424],[-122.591104,45.584405],[-122.591254,45.584333],[-122.591391,45.584224],[-122.591547,45.584008],[-122.591544,45.583932],[-122.591498,45.583856],[-122.591365,45.583775]],[[-122.584366,45.581052],[-122.58419,45.580979],[-122.583541,45.580732],[-122.584366,45.581052]],[[-122.58439,45.58048],[-122.58447,45.580585],[-122.584625,45.580689],[-122.591624,45.583412],[-122.591799,45.583439],[-122.591939,45.583406],[-122.592055,45.583313],[-122.592189,45.583105],[-122.592228,45.582967],[-122.592136,45.582831],[-122.591858,45.582646],[-122.591472,45.582455],[-122.585804,45.580241],[-122.585102,45.580033],[-122.584732,45.580009],[-122.584571,45.580058],[-122.584413,45.580198],[-122.584363,45.58032],[-122.58439,45.58048]],[[-122.596108,45.585624],[-122.596086,45.585617],[-122.596266,45.585687],[-122.596108,45.585624]],[[-122.596086,45.585617],[-122.593049,45.58443],[-122.592687,45.584322],[-122.592436,45.584289],[-122.5921,45.584318],[-122.591864,45.584398],[-122.591739,45.584561],[-122.591754,45.58466],[-122.59181,45.584727],[-122.592,45.584876],[-122.59221,45.584987],[-122.593213,45.58541],[-122.595942,45.586458],[-122.596083,45.586463],[-122.596266,45.586422],[-122.596393,45.586335],[-122.596465,45.58622],[-122.596457,45.585984],[-122.596376,45.585817],[-122.596275,45.58572],[-122.596086,45.585617]],[[-122.59632,45.587053],[-122.596196,45.586918],[-122.595191,45.586411],[-122.591889,45.585122],[-122.591803,45.585139],[-122.591771,45.585177],[-122.591817,45.585253],[-122.593877,45.586427],[-122.595002,45.58694],[-122.596044,45.587241],[-122.596249,45.587199],[-122.596322,45.587106],[-122.59632,45.587053]],[[-122.593109,45.583979],[-122.598865,45.586222],[-122.599357,45.586296],[-122.600258,45.586295],[-122.600473,45.586246],[-122.600568,45.586152],[-122.600554,45.586069],[-122.60032,45.585898],[-122.59408,45.583466],[-122.593509,45.583279],[-122.593082,45.583187],[-122.592801,45.583223],[-122.592653,45.583332],[-122.592626,45.583493],[-122.592731,45.583704],[-122.592888,45.583854],[-122.593109,45.583979]],[[-122.598707,45.587932],[-122.598682,45.587833],[-122.598505,45.58773],[-122.598163,45.587583],[-122.597647,45.587425],[-122.597077,45.587276],[-122.596926,45.587286],[-122.596799,45.587403],[-122.596814,45.587509],[-122.596903,45.587591],[-122.597555,45.587915],[-122.59783,45.588016],[-122.598092,45.588057],[-122.598462,45.588058],[-122.598634,45.588017],[-122.598707,45.587932]],[[-122.600041,45.587252],[-122.599047,45.586775],[-122.598618,45.586607],[-122.598366,45.586543],[-122.597931,45.586521],[-122.597596,45.58658],[-122.597415,45.586683],[-122.597333,45.586821],[-122.597348,45.586928],[-122.597393,45.586995],[-122.59756,45.587099],[-122.598583,45.587492],[-122.598923,45.587592],[-122.599665,45.587686],[-122.600219,45.587683],[-122.6005,45.587663],[-122.600554,45.587631],[-122.600551,45.587555],[-122.600041,45.587252]],[[-122.59766,45.586228],[-122.597473,45.586156],[-122.597715,45.58625],[-122.59766,45.586228]],[[-122.598716,45.591994],[-122.598555,45.59205],[-122.598344,45.592221],[-122.597905,45.592717],[-122.597741,45.593017],[-122.597704,45.593193],[-122.597708,45.5933],[-122.59781,45.593451],[-122.597953,45.593494],[-122.598148,45.593467],[-122.598309,45.593419],[-122.598757,45.593197],[-122.599181,45.592877],[-122.599452,45.592552],[-122.599456,45.592346],[-122.599263,45.592121],[-122.59902,45.592003],[-122.598716,45.591994]],[[-122.598255,45.586469],[-122.598222,45.586454],[-122.598145,45.586425],[-122.598255,45.586469]],[[-122.598631,45.591736],[-122.599168,45.591543],[-122.599135,45.591552],[-122.598631,45.591736]],[[-122.599912,45.592033],[-122.60013,45.592059],[-122.600302,45.59201],[-122.600879,45.591725],[-122.60107,45.5916],[-122.601068,45.591547],[-122.600969,45.591503],[-122.600198,45.591509],[-122.599233,45.591542],[-122.599169,45.591581],[-122.599171,45.591642],[-122.599426,45.591805],[-122.599912,45.592033]],[[-122.599229,45.586375],[-122.600121,45.586725],[-122.60011,45.586717],[-122.599229,45.586375]],[[-122.601645,45.589067],[-122.601445,45.58891],[-122.601157,45.588748],[-122.599869,45.588253],[-122.599717,45.588249],[-122.59962,45.588281],[-122.599505,45.588412],[-122.599542,45.588541],[-122.599799,45.588735],[-122.600396,45.589044],[-122.600825,45.589196],[-122.601284,45.589294],[-122.601512,45.589306],[-122.601651,45.589219],[-122.601671,45.589165],[-122.601645,45.589067]],[[-122.600308,45.586797],[-122.600336,45.586809],[-122.60033,45.586805],[-122.600308,45.586797]],[[-122.600384,45.588084],[-122.600331,45.588115],[-122.600333,45.588169],[-122.600378,45.588206],[-122.601467,45.588628],[-122.601543,45.588627],[-122.601596,45.588588],[-122.601595,45.588534],[-122.601356,45.588241],[-122.601189,45.588107],[-122.601025,45.588065],[-122.600384,45.588084]],[[-122.600451,45.586856],[-122.600352,45.586812],[-122.600344,45.586812],[-122.600451,45.586856]],[[-122.600836,45.587001],[-122.604534,45.588442],[-122.604775,45.588506],[-122.604982,45.588526],[-122.605253,45.588498],[-122.605466,45.588379],[-122.60557,45.588233],[-122.605531,45.588066],[-122.605397,45.587954],[-122.604151,45.58739],[-122.602092,45.586589],[-122.601548,45.586538],[-122.601309,45.58655],[-122.60091,45.586641],[-122.600782,45.586697],[-122.600699,45.586798],[-122.600724,45.586912],[-122.600836,45.587001]],[[-122.601229,45.591178],[-122.601436,45.591189],[-122.602108,45.590834],[-122.602507,45.590423],[-122.602525,45.590339],[-122.60249,45.590255],[-122.602423,45.590196],[-122.601994,45.590036],[-122.60182,45.590047],[-122.601703,45.59011],[-122.601303,45.590483],[-122.601048,45.590945],[-122.601051,45.591052],[-122.601097,45.591112],[-122.601229,45.591178]],[[-122.60264,45.58895],[-122.602985,45.589164],[-122.603599,45.589351],[-122.603816,45.58934],[-122.603985,45.589214],[-122.604015,45.589138],[-122.603953,45.588903],[-122.60385,45.588767],[-122.603705,45.588633],[-122.603572,45.588567],[-122.602508,45.588258],[-122.602158,45.588181],[-122.60205,45.588213],[-122.602042,45.588275],[-122.602281,45.58859],[-122.60264,45.58895]],[[-122.604478,45.59028],[-122.604235,45.590155],[-122.604048,45.590097],[-122.60394,45.590092],[-122.603692,45.590165],[-122.602978,45.590559],[-122.602077,45.591193],[-122.602057,45.591247],[-122.602157,45.591298],[-122.603123,45.591303],[-122.60334,45.591284],[-122.603577,45.591219],[-122.603747,45.591132],[-122.60449,45.590615],[-122.604562,45.590507],[-122.60456,45.590439],[-122.604546,45.590363],[-122.604478,45.59028]],[[-122.602238,45.589559],[-122.602296,45.589665],[-122.602484,45.589775],[-122.603,45.589934],[-122.603184,45.589915],[-122.603278,45.589814],[-122.603275,45.589715],[-122.603208,45.589656],[-122.602711,45.589421],[-122.602384,45.589396],[-122.602267,45.589467],[-122.602238,45.589559]],[[-122.607325,45.586539],[-122.606889,45.586509],[-122.602893,45.586506],[-122.602785,45.586523],[-122.602818,45.58653],[-122.602776,45.586562],[-122.602777,45.5866],[-122.602833,45.586644],[-122.604957,45.587474],[-122.605605,45.587691],[-122.606109,45.587811],[-122.606304,45.587793],[-122.606849,45.587539],[-122.607549,45.587046],[-122.607673,45.586891],[-122.60768,45.586754],[-122.607533,45.586596],[-122.607325,45.586539]],[[-122.603538,45.588529],[-122.603555,45.588533],[-122.603527,45.588522],[-122.603538,45.588529]],[[-122.604972,45.590103],[-122.605296,45.590052],[-122.60607,45.589512],[-122.605652,45.589359],[-122.605152,45.589338],[-122.604904,45.589396],[-122.604563,45.5896],[-122.604512,45.5897],[-122.604526,45.589784],[-122.60474,45.590001],[-122.604972,45.590103]],[[-122.60517,45.590824],[-122.604965,45.590866],[-122.604647,45.591077],[-122.604595,45.591154],[-122.604608,45.591223],[-122.604676,45.591282],[-122.604763,45.591304],[-122.605827,45.591299],[-122.60588,45.59126],[-122.605867,45.591192],[-122.605822,45.591155],[-122.605411,45.590873],[-122.60517,45.590824]],[[-122.612745,45.592239],[-122.612489,45.592053],[-122.612047,45.591841],[-122.606598,45.589715],[-122.605633,45.590388],[-122.605551,45.590519],[-122.605566,45.590656],[-122.605634,45.590739],[-122.606089,45.591013],[-122.61156,45.593145],[-122.611834,45.593216],[-122.612107,45.593257],[-122.612259,45.593247],[-122.612441,45.593182],[-122.612631,45.593034],[-122.612808,45.592794],[-122.612887,45.592587],[-122.612847,45.592359],[-122.612745,45.592239]],[[-122.606183,45.589007],[-122.606494,45.589214],[-122.606653,45.589105],[-122.607023,45.588816],[-122.607053,45.588747],[-122.607027,45.588602],[-122.60687,45.588468],[-122.606475,45.588346],[-122.606302,45.588364],[-122.606173,45.58842],[-122.606069,45.588536],[-122.606055,45.588773],[-122.606183,45.589007]],[[-122.609265,45.586763],[-122.609121,45.586666],[-122.608892,45.586648],[-122.608559,45.586753],[-122.608101,45.586997],[-122.607591,45.587327],[-122.607011,45.587841],[-122.60696,45.587941],[-122.607,45.58813],[-122.607245,45.588316],[-122.607486,45.588388],[-122.607756,45.58833],[-122.609049,45.587422],[-122.609176,45.587305],[-122.60932,45.587082],[-122.609324,45.586884],[-122.609265,45.586763]],[[-122.607022,45.589418],[-122.620519,45.594672],[-122.620661,45.5947],[-122.620932,45.594679],[-122.621061,45.594639],[-122.621284,45.594505],[-122.621598,45.594164],[-122.621919,45.593709],[-122.621979,45.59357],[-122.621974,45.593418],[-122.621883,45.593305],[-122.621043,45.592879],[-122.618951,45.592056],[-122.618809,45.592051],[-122.618368,45.592174],[-122.618259,45.59216],[-122.617356,45.591796],[-122.617257,45.591432],[-122.617178,45.591365],[-122.613965,45.590136],[-122.613537,45.59003],[-122.613112,45.589969],[-122.612274,45.589923],[-122.611318,45.589926],[-122.610632,45.589847],[-122.610138,45.589719],[-122.608081,45.588941],[-122.607895,45.588914],[-122.60768,45.588964],[-122.607022,45.589418]],[[-122.610401,45.585362],[-122.609694,45.585962],[-122.60957,45.586147],[-122.609544,45.586331],[-122.609601,45.586429],[-122.609724,45.586526],[-122.609899,45.586568],[-122.610235,45.586539],[-122.610364,45.586491],[-122.6157,45.582761],[-122.6158,45.582626],[-122.615829,45.582504],[-122.61578,45.58236],[-122.615579,45.582196],[-122.615306,45.582147],[-122.614898,45.582284],[-122.614536,45.582482],[-122.610401,45.585362]],[[-122.612282,45.591933],[-122.612201,45.591899],[-122.612179,45.591891],[-122.612282,45.591933]],[[-122.612488,45.592015],[-122.61241,45.591979],[-122.612364,45.591966],[-122.612488,45.592015]],[[-122.613885,45.592554],[-122.613786,45.592517],[-122.613964,45.592586],[-122.613885,45.592554]],[[-122.613786,45.592517],[-122.613742,45.592495],[-122.613654,45.592466],[-122.613786,45.592517]],[[-122.613654,45.592466],[-122.612895,45.592168],[-122.612653,45.592081],[-122.613654,45.592466]],[[-122.620238,45.595028],[-122.614062,45.592627],[-122.61393,45.592598],[-122.613735,45.59261],[-122.613542,45.592674],[-122.61333,45.592831],[-122.613039,45.593186],[-122.612967,45.593317],[-122.61295,45.593447],[-122.613009,45.593591],[-122.613076,45.593651],[-122.613475,45.593887],[-122.618419,45.595816],[-122.619386,45.596148],[-122.61968,45.596166],[-122.619927,45.596085],[-122.620022,45.596015],[-122.620438,45.595481],[-122.620467,45.595382],[-122.62044,45.59523],[-122.620371,45.595124],[-122.620238,45.595028]],[[-122.616118,45.582469],[-122.616333,45.582319],[-122.616354,45.582304],[-122.616118,45.582469]],[[-122.62078,45.595242],[-122.620932,45.595304],[-122.620964,45.595311],[-122.62078,45.595242]]],[[[-122.610638,45.58689],[-122.611624,45.586201],[-122.61154,45.586294],[-122.611523,45.586409],[-122.611615,45.586567],[-122.611793,45.586693],[-122.611689,45.586825],[-122.611502,45.58676],[-122.61124,45.586726],[-122.610873,45.586779],[-122.610638,45.58689]]],[[[-122.596184,45.592581],[-122.595744,45.593061],[-122.595115,45.592768],[-122.594345,45.59247],[-122.593676,45.592269],[-122.593153,45.59224],[-122.593025,45.592303],[-122.592974,45.592411],[-122.59301,45.592494],[-122.593077,45.592546],[-122.593309,45.592656],[-122.594696,45.59321],[-122.59519,45.593354],[-122.596699,45.593661],[-122.59668,45.59373],[-122.596715,45.593798],[-122.596805,45.593911],[-122.596938,45.593985],[-122.596619,45.594189],[-122.596212,45.594028],[-122.596103,45.594023],[-122.596017,45.594055],[-122.595576,45.594497],[-122.595462,45.594644],[-122.599009,45.596019],[-122.598984,45.596013],[-122.599876,45.596355],[-122.599584,45.596718],[-122.566049,45.583639],[-122.566643,45.582889],[-122.566811,45.582741],[-122.567015,45.582654],[-122.567252,45.582611],[-122.567656,45.582657],[-122.575865,45.58587],[-122.575974,45.585891],[-122.57618,45.585872],[-122.576329,45.585793],[-122.576402,45.585708],[-122.576666,45.58581],[-122.576593,45.585895],[-122.576575,45.586002],[-122.57669,45.586175],[-122.577736,45.586598],[-122.57791,45.586611],[-122.577984,45.586563],[-122.57813,45.586386],[-122.578394,45.58648],[-122.578228,45.586704],[-122.578341,45.586839],[-122.580795,45.587793],[-122.581815,45.588087],[-122.581999,45.588068],[-122.582158,45.587959],[-122.582598,45.588134],[-122.582549,45.588272],[-122.582585,45.588362],[-122.582663,45.58843],[-122.583524,45.588856],[-122.584944,45.589409],[-122.585382,45.589501],[-122.586011,45.589482],[-122.586237,45.589416],[-122.586288,45.589339],[-122.586275,45.589256],[-122.58623,45.589211],[-122.585679,45.588992],[-122.586043,45.588833],[-122.586238,45.58883],[-122.588879,45.589841],[-122.589315,45.589894],[-122.596184,45.592581]],[[-122.566988,45.58315],[-122.566973,45.583356],[-122.567088,45.583529],[-122.567232,45.583625],[-122.566705,45.583425],[-122.567739,45.58383],[-122.56801,45.58384],[-122.568128,45.583792],[-122.568319,45.583651],[-122.568412,45.583513],[-122.568397,45.583383],[-122.568273,45.583248],[-122.568018,45.583093],[-122.567787,45.583006],[-122.567503,45.582957],[-122.567275,45.582962],[-122.567082,45.583041],[-122.566988,45.58315]],[[-122.575681,45.586529],[-122.575974,45.586211],[-122.575972,45.586158],[-122.570789,45.584118],[-122.569756,45.583755],[-122.569373,45.583671],[-122.569112,45.583668],[-122.568994,45.583708],[-122.568888,45.583778],[-122.568805,45.583887],[-122.568823,45.584115],[-122.568981,45.584295],[-122.569114,45.584369],[-122.57499,45.586663],[-122.575143,45.586691],[-122.575371,45.586679],[-122.575532,45.586631],[-122.575681,45.586529]],[[-122.581537,45.588846],[-122.581819,45.588521],[-122.581806,45.588453],[-122.581727,45.588386],[-122.576897,45.586515],[-122.576547,45.586437],[-122.576351,45.586448],[-122.576159,45.586528],[-122.576055,45.586667],[-122.576039,45.586827],[-122.576165,45.587023],[-122.576531,45.587268],[-122.5809,45.588965],[-122.581216,45.588982],[-122.581409,45.588925],[-122.581537,45.588846]],[[-122.5861,45.590189],[-122.58612,45.590135],[-122.586053,45.590075],[-122.582685,45.588772],[-122.582325,45.58871],[-122.58213,45.588737],[-122.581918,45.58887],[-122.581826,45.589039],[-122.581829,45.589146],[-122.581888,45.589282],[-122.582012,45.589394],[-122.582967,45.589712],[-122.584347,45.590045],[-122.585623,45.590197],[-122.586014,45.590213],[-122.5861,45.590189]],[[-122.589766,45.591951],[-122.590679,45.59198],[-122.59071,45.591934],[-122.590632,45.591859],[-122.587286,45.590556],[-122.586946,45.590471],[-122.586652,45.590438],[-122.585307,45.590485],[-122.585189,45.590548],[-122.58518,45.590586],[-122.585226,45.590654],[-122.586436,45.591128],[-122.58794,45.591603],[-122.589144,45.591871],[-122.589766,45.591951]],[[-122.587847,45.589829],[-122.587254,45.589642],[-122.586701,45.589652],[-122.586485,45.589694],[-122.586422,45.589741],[-122.586392,45.58984],[-122.586451,45.589954],[-122.586562,45.590028],[-122.587024,45.59021],[-122.587806,45.590211],[-122.588053,45.59013],[-122.588093,45.590038],[-122.588047,45.589948],[-122.587847,45.589829]],[[-122.591535,45.591911],[-122.591676,45.591909],[-122.591793,45.591846],[-122.591855,45.591745],[-122.591829,45.591616],[-122.591728,45.591527],[-122.590943,45.591129],[-122.589479,45.590562],[-122.589041,45.590448],[-122.588781,45.59046],[-122.588674,45.590508],[-122.58859,45.590601],[-122.588593,45.590692],[-122.588684,45.590805],[-122.589126,45.591033],[-122.590469,45.591557],[-122.591535,45.591911]],[[-122.595356,45.59409],[-122.595373,45.593945],[-122.595326,45.593846],[-122.595059,45.593653],[-122.594594,45.59341],[-122.592778,45.592696],[-122.591723,45.592342],[-122.591199,45.592245],[-122.589897,45.592284],[-122.589791,45.592362],[-122.589803,45.592415],[-122.589859,45.59246],[-122.59457,45.594295],[-122.594854,45.59432],[-122.595145,45.594261],[-122.595356,45.59409]]],[[[-122.633666,45.555415],[-122.630507,45.555405],[-122.630513,45.553698],[-122.625357,45.553687],[-122.621245,45.553717],[-122.620388,45.553725],[-122.620129,45.553776],[-122.614756,45.553753],[-122.614779,45.551901],[-122.612087,45.551882],[-122.612073,45.551798],[-122.609512,45.551792],[-122.609481,45.551541],[-122.609487,45.550748],[-122.609115,45.550664],[-122.608927,45.550576],[-122.608448,45.550219],[-122.608441,45.550013],[-122.608324,45.549756],[-122.608516,45.549341],[-122.608599,45.549248],[-122.609455,45.548561],[-122.609513,45.548377],[-122.609467,45.548287],[-122.604387,45.548258],[-122.604457,45.542419],[-122.604419,45.54226],[-122.607513,45.541029],[-122.607512,45.541311],[-122.610279,45.541329],[-122.610509,45.54137],[-122.610709,45.541512],[-122.610803,45.541738],[-122.610821,45.541929],[-122.611128,45.54171],[-122.611535,45.541573],[-122.611828,45.541567],[-122.612408,45.541694],[-122.61292,45.541753],[-122.613147,45.541749],[-122.613353,45.541737],[-122.613567,45.541642],[-122.613815,45.541599],[-122.614835,45.541603],[-122.614843,45.541512],[-122.614868,45.533783],[-122.604864,45.533731],[-122.604887,45.532199],[-122.604954,45.531931],[-122.604988,45.530406],[-122.605033,45.53013],[-122.605038,45.5284],[-122.604702,45.527781],[-122.604691,45.526509],[-122.605309,45.526505],[-122.605331,45.524287],[-122.607337,45.524288],[-122.607536,45.524376],[-122.611929,45.524379],[-122.611932,45.525095],[-122.612615,45.525098],[-122.612623,45.524686],[-122.61335,45.524688],[-122.613351,45.524399],[-122.614902,45.5244],[-122.614896,45.522991],[-122.615487,45.523132],[-122.616073,45.523137],[-122.616055,45.521978],[-122.617335,45.521993],[-122.617344,45.521635],[-122.618288,45.521632],[-122.618623,45.521596],[-122.619419,45.521398],[-122.619699,45.521362],[-122.622606,45.521362],[-122.622597,45.52172],[-122.622955,45.521721],[-122.622949,45.522804],[-122.62348,45.522786],[-122.624236,45.522696],[-122.625884,45.522353],[-122.627169,45.522177],[-122.627862,45.522156],[-122.628647,45.522279],[-122.628918,45.522259],[-122.629499,45.522141],[-122.631614,45.522132],[-122.631604,45.524335],[-122.634425,45.524344],[-122.634391,45.530205],[-122.634428,45.530326],[-122.634792,45.530807],[-122.635264,45.530661],[-122.636148,45.530492],[-122.644758,45.530073],[-122.644726,45.535035],[-122.664594,45.535111],[-122.664586,45.535813],[-122.663577,45.535809],[-122.663559,45.536525],[-122.66408,45.536523],[-122.664067,45.537087],[-122.661528,45.537082],[-122.661464,45.543836],[-122.661492,45.544643],[-122.661342,45.544692],[-122.658455,45.544678],[-122.658417,45.548207],[-122.658452,45.548283],[-122.654317,45.548269],[-122.654346,45.546012],[-122.655355,45.546009],[-122.655371,45.545216],[-122.640958,45.545173],[-122.640968,45.548244],[-122.640905,45.550776],[-122.640497,45.550593],[-122.640256,45.550841],[-122.640229,45.551002],[-122.64007,45.551112],[-122.638779,45.552957],[-122.638783,45.553087],[-122.633692,45.553067],[-122.633666,45.555415]]],[[[-122.656584,45.624051],[-122.656581,45.623967],[-122.656776,45.623963],[-122.656792,45.623795],[-122.656433,45.623794],[-122.656441,45.623703],[-122.6568,45.623711],[-122.656901,45.623808],[-122.656894,45.623908],[-122.656939,45.623952],[-122.657026,45.623958],[-122.657057,45.62392],[-122.657064,45.622883],[-122.657017,45.622793],[-122.656679,45.622433],[-122.656495,45.622155],[-122.656466,45.621965],[-122.656527,45.621537],[-122.656493,45.621476],[-122.656416,45.621447],[-122.651139,45.621249],[-122.65116,45.620639],[-122.651123,45.62051],[-122.651034,45.620451],[-122.650696,45.620419],[-122.650537,45.620536],[-122.650112,45.620483],[-122.649832,45.620245],[-122.649786,45.620169],[-122.649825,45.619749],[-122.662475,45.621036],[-122.662498,45.621081],[-122.662445,45.621425],[-122.662361,45.621503],[-122.662233,45.621559],[-122.658395,45.621189],[-122.658189,45.621208],[-122.658094,45.621294],[-122.657484,45.621229],[-122.657261,45.621073],[-122.656858,45.621043],[-122.656783,45.621075],[-122.656576,45.621985],[-122.656592,45.62213],[-122.656753,45.622394],[-122.657135,45.622752],[-122.657183,45.622881],[-122.657176,45.623902],[-122.657547,45.623933],[-122.657573,45.624063],[-122.656584,45.624051]],[[-122.651151,45.620052],[-122.650169,45.619956],[-122.649944,45.620044],[-122.649916,45.620159],[-122.650006,45.620241],[-122.650987,45.620345],[-122.651157,45.620243],[-122.651177,45.620189],[-122.651151,45.620052]],[[-122.656508,45.620988],[-122.651492,45.620496],[-122.651332,45.620567],[-122.651293,45.620713],[-122.651363,45.620826],[-122.651429,45.620863],[-122.652746,45.620922],[-122.652753,45.62112],[-122.652776,45.621165],[-122.652887,45.621216],[-122.656456,45.621363],[-122.656563,45.621323],[-122.65662,45.621078],[-122.656508,45.620988]],[[-122.651423,45.62039],[-122.656516,45.620904],[-122.656623,45.620864],[-122.656696,45.620764],[-122.656559,45.620591],[-122.651597,45.620082],[-122.651446,45.6201],[-122.651308,45.620202],[-122.651323,45.620323],[-122.651423,45.62039]],[[-122.656796,45.620846],[-122.656831,45.620906],[-122.656897,45.620935],[-122.662012,45.621464],[-122.662175,45.621461],[-122.662282,45.621406],[-122.662332,45.621306],[-122.662297,45.621222],[-122.66211,45.62115],[-122.657039,45.620635],[-122.656815,45.620769],[-122.656796,45.620846]]]]}},{"type":"Feature","properties":{"name":"Jefferson High School","school_label":"Jefferson High School Mandarin Immersion","cluster":"Jefferson","level":"9-12","area_sqmi":28.31},"geometry":{"type":"MultiPolygon","coordinates":[[[[-122.727563,45.640638],[-122.712896,45.636364],[-122.70602,45.63347],[-122.698795,45.629028],[-122.688108,45.623478],[-122.682508,45.62094],[-122.674791,45.617847],[-122.667864,45.61525],[-122.660608,45.613161],[-122.648796,45.609389],[-122.643358,45.607982],[-122.635024,45.606689],[-122.634921,45.600929],[-122.635051,45.599364],[-122.635206,45.598211],[-122.635388,45.596279],[-122.6354,45.595692],[-122.635499,45.595416],[-122.635505,45.594356],[-122.630411,45.594352],[-122.63042,45.590541],[-122.62009,45.589239],[-122.620211,45.584587],[-122.620212,45.578666],[-122.622022,45.577641],[-122.622055,45.575461],[-122.623274,45.575248],[-122.624179,45.575041],[-122.624137,45.571665],[-122.624583,45.57136],[-122.624581,45.570057],[-122.62432,45.570046],[-122.624313,45.568278],[-122.62419,45.568197],[-122.624194,45.566421],[-122.624454,45.566416],[-122.624455,45.565204],[-122.624344,45.565122],[-122.624361,45.564672],[-122.624279,45.564506],[-122.62428,45.563912],[-122.627428,45.563907],[-122.627432,45.562763],[-122.619998,45.562825],[-122.613994,45.562791],[-122.614043,45.560435],[-122.614684,45.560438],[-122.614698,45.55928],[-122.614637,45.559098],[-122.614691,45.555629],[-122.614729,45.555468],[-122.614756,45.553753],[-122.620129,45.553776],[-122.620388,45.553725],[-122.621245,45.553717],[-122.625357,45.553687],[-122.630513,45.553698],[-122.630507,45.555405],[-122.633666,45.555415],[-122.633692,45.553067],[-122.638783,45.553087],[-122.638779,45.552957],[-122.64007,45.551112],[-122.640229,45.551002],[-122.640256,45.550841],[-122.640497,45.550593],[-122.640905,45.550776],[-122.640968,45.548244],[-122.640958,45.545173],[-122.655371,45.545216],[-122.655355,45.546009],[-122.654346,45.546012],[-122.654317,45.548269],[-122.658452,45.548283],[-122.658417,45.548207],[-122.658455,45.544678],[-122.661342,45.544692],[-122.661492,45.544643],[-122.661464,45.543836],[-122.661528,45.537082],[-122.664067,45.537087],[-122.66408,45.536523],[-122.663559,45.536525],[-122.663577,45.535809],[-122.664586,45.535813],[-122.664594,45.535111],[-122.668315,45.535102],[-122.671366,45.533352],[-122.674058,45.531868],[-122.674394,45.532159],[-122.678562,45.535235],[-122.68284,45.538058],[-122.684442,45.539178],[-122.690891,45.544116],[-122.694979,45.54794],[-122.697833,45.550355],[-122.700142,45.551492],[-122.702667,45.552289],[-122.708883,45.554609],[-122.711335,45.555469],[-122.71831,45.558337],[-122.722519,45.560367],[-122.729997,45.565069],[-122.731297,45.566194],[-122.723864,45.570729],[-122.72163,45.572868],[-122.721259,45.573127],[-122.721091,45.573282],[-122.721237,45.573409],[-122.72002,45.573997],[-122.718648,45.57448],[-122.717949,45.574646],[-122.714086,45.575315],[-122.71199,45.575295],[-122.708846,45.575119],[-122.707766,45.574972],[-122.705673,45.574441],[-122.704652,45.574148],[-122.703629,45.573771],[-122.702621,45.573212],[-122.702618,45.577045],[-122.702568,45.577145],[-122.685043,45.577137],[-122.681992,45.57715],[-122.678532,45.577231],[-122.678467,45.579975],[-122.678483,45.581644],[-122.678596,45.582671],[-122.678713,45.583202],[-122.679017,45.584119],[-122.680904,45.588305],[-122.682362,45.588377],[-122.683237,45.588566],[-122.684295,45.588972],[-122.685331,45.589418],[-122.688152,45.589943],[-122.689677,45.590379],[-122.69068,45.590787],[-122.696269,45.592783],[-122.699972,45.59397],[-122.702429,45.594632],[-122.703552,45.59474],[-122.704777,45.594686],[-122.705854,45.594741],[-122.706994,45.595024],[-122.708039,45.595385],[-122.710005,45.596003],[-122.712455,45.596459],[-122.713105,45.596713],[-122.714792,45.597702],[-122.717352,45.59939],[-122.718984,45.600372],[-122.719183,45.60046],[-122.720885,45.600953],[-122.721323,45.601051],[-122.723034,45.601201],[-122.724435,45.601219],[-122.725296,45.601279],[-122.725908,45.601374],[-122.726346,45.601479],[-122.726851,45.601637],[-122.727249,45.601812],[-122.728146,45.602298],[-122.729413,45.603066],[-122.730127,45.603296],[-122.73051,45.60335],[-122.734236,45.603651],[-122.73534,45.603843],[-122.736052,45.604004],[-122.73647,45.604141],[-122.737035,45.604435],[-122.737973,45.605133],[-122.738976,45.606119],[-122.739301,45.606403],[-122.739736,45.606699],[-122.7402,45.606911],[-122.740442,45.606998],[-122.740967,45.607094],[-122.743495,45.607296],[-122.744472,45.607574],[-122.746049,45.607605],[-122.747231,45.608138],[-122.74838,45.608961],[-122.748767,45.609144],[-122.749459,45.609344],[-122.751184,45.609562],[-122.751753,45.60968],[-122.752182,45.609817],[-122.753506,45.61037],[-122.75589,45.608753],[-122.75472,45.606794],[-122.75483,45.606823],[-122.755395,45.606819],[-122.755502,45.606779],[-122.755701,45.606585],[-122.754685,45.606124],[-122.754899,45.606052],[-122.757262,45.605601],[-122.7583,45.605474],[-122.759085,45.605558],[-122.760058,45.605729],[-122.762394,45.606605],[-122.763053,45.606791],[-122.763971,45.606948],[-122.765037,45.606995],[-122.765753,45.606958],[-122.766303,45.606848],[-122.766338,45.606909],[-122.76709,45.606688],[-122.7677,45.60644],[-122.775065,45.606424],[-122.776387,45.606344],[-122.778481,45.605982],[-122.779067,45.605971],[-122.779261,45.605921],[-122.780872,45.605722],[-122.783048,45.605511],[-122.7853,45.609353],[-122.788263,45.614172],[-122.789811,45.616908],[-122.790583,45.619499],[-122.792497,45.620116],[-122.791767,45.621807],[-122.790396,45.626362],[-122.790303,45.627919],[-122.788844,45.631317],[-122.788001,45.632865],[-122.786809,45.634711],[-122.773212,45.634714],[-122.75978,45.634758],[-122.743323,45.634722],[-122.743213,45.645569],[-122.736642,45.643365],[-122.727563,45.640638]]]]}},{"type":"Feature","properties":{"name":"Lincoln High School","school_label":"Lincoln High School Spanish Immersion","cluster":"Lincoln","level":"9-12","area_sqmi":57.54},"geometry":{"type":"MultiPolygon","coordinates":[[[[-122.82295,45.64188],[-122.821248,45.636566],[-122.820119,45.633197],[-122.8186,45.630689],[-122.816401,45.627769],[-122.815091,45.626462],[-122.809474,45.622802],[-122.804513,45.620363],[-122.801629,45.619659],[-122.798305,45.619413],[-122.796712,45.619529],[-122.795154,45.619697],[-122.793694,45.619894],[-122.792497,45.620116],[-122.790583,45.619499],[-122.789811,45.616908],[-122.788263,45.614172],[-122.7853,45.609353],[-122.782549,45.604659],[-122.779998,45.601235],[-122.777661,45.598026],[-122.772462,45.592017],[-122.768106,45.588216],[-122.76395,45.584815],[-122.759967,45.582546],[-122.754861,45.580733],[-122.749556,45.578802],[-122.74557,45.576716],[-122.738528,45.572128],[-122.735479,45.569802],[-122.729997,45.565069],[-122.722519,45.560367],[-122.71831,45.558337],[-122.711335,45.555469],[-122.708883,45.554609],[-122.702667,45.552289],[-122.700142,45.551492],[-122.697833,45.550355],[-122.694979,45.54794],[-122.690891,45.544116],[-122.684442,45.539178],[-122.68284,45.538058],[-122.678562,45.535235],[-122.674394,45.532159],[-122.667866,45.526429],[-122.667551,45.523974],[-122.66776,45.52224],[-122.668378,45.519789],[-122.669478,45.517779],[-122.669963,45.516154],[-122.670405,45.514255],[-122.670532,45.513567],[-122.670569,45.512454],[-122.669746,45.510053],[-122.667739,45.506364],[-122.665481,45.502931],[-122.665367,45.502156],[-122.665408,45.501188],[-122.674329,45.5005],[-122.676783,45.500278],[-122.677074,45.500242],[-122.677558,45.500119],[-122.677575,45.500012],[-122.677801,45.499954],[-122.677974,45.499951],[-122.678247,45.500007],[-122.678446,45.500102],[-122.678514,45.500169],[-122.678616,45.500297],[-122.678677,45.500486],[-122.678701,45.500859],[-122.678837,45.50043],[-122.67887,45.50014],[-122.68053,45.500169],[-122.680179,45.499452],[-122.679753,45.498736],[-122.678465,45.496382],[-122.678269,45.496058],[-122.677498,45.495097],[-122.67736,45.494871],[-122.67718,45.49441],[-122.676913,45.493295],[-122.676905,45.492776],[-122.67706,45.492248],[-122.677347,45.491793],[-122.677661,45.491482],[-122.678051,45.491169],[-122.678508,45.490894],[-122.679053,45.490693],[-122.680967,45.490245],[-122.681406,45.490092],[-122.6818,45.489879],[-122.682242,45.48952],[-122.684727,45.489571],[-122.684713,45.490402],[-122.690104,45.49049],[-122.690158,45.490489],[-122.690541,45.489384],[-122.691042,45.489428],[-122.691264,45.489279],[-122.69163,45.489508],[-122.693486,45.489564],[-122.694396,45.489562],[-122.694807,45.489524],[-122.695055,45.489481],[-122.695061,45.489343],[-122.698346,45.489357],[-122.698396,45.489539],[-122.698465,45.489644],[-122.698916,45.489826],[-122.699156,45.489875],[-122.699332,45.489947],[-122.699433,45.490037],[-122.699512,45.490142],[-122.699549,45.490263],[-122.699583,45.49059],[-122.699721,45.490809],[-122.699969,45.491071],[-122.700429,45.491199],[-122.700672,45.491324],[-122.700729,45.491399],[-122.700746,45.491589],[-122.70062,45.491981],[-122.700605,45.492171],[-122.70063,45.49227],[-122.700744,45.492413],[-122.700832,45.492457],[-122.701212,45.492465],[-122.70208,45.492204],[-122.702275,45.492193],[-122.70258,45.492225],[-122.702986,45.49237],[-122.703153,45.492496],[-122.703571,45.49296],[-122.703587,45.493097],[-122.703484,45.493549],[-122.703522,45.493708],[-122.703732,45.493811],[-122.704188,45.493825],[-122.704342,45.493898],[-122.704412,45.494027],[-122.704336,45.494325],[-122.704352,45.494462],[-122.704456,45.494635],[-122.7046,45.494739],[-122.704894,45.494749],[-122.705517,45.494592],[-122.706015,45.494575],[-122.706559,45.494641],[-122.706714,45.494714],[-122.706773,45.494858],[-122.706743,45.494912],[-122.706255,45.495508],[-122.706106,45.495594],[-122.706002,45.495711],[-122.705971,45.495772],[-122.705986,45.495879],[-122.706054,45.495946],[-122.706263,45.496034],[-122.707175,45.496069],[-122.708178,45.496233],[-122.708531,45.496386],[-122.709101,45.496871],[-122.710001,45.497471],[-122.710252,45.497816],[-122.710667,45.498487],[-122.711015,45.49941],[-122.711036,45.499699],[-122.710974,45.500074],[-122.710985,45.50098],[-122.710892,45.501112],[-122.711032,45.501368],[-122.711177,45.501495],[-122.711299,45.501554],[-122.711831,45.501574],[-122.712126,45.501644],[-122.713241,45.502195],[-122.713631,45.501882],[-122.714213,45.501497],[-122.714921,45.500973],[-122.716507,45.500165],[-122.716882,45.500051],[-122.717133,45.500092],[-122.717563,45.500282],[-122.717792,45.500315],[-122.717952,45.500229],[-122.718189,45.499896],[-122.718389,45.499725],[-122.719047,45.499346],[-122.719636,45.499137],[-122.720292,45.498987],[-122.720562,45.498974],[-122.722458,45.499211],[-122.722905,45.498997],[-122.724208,45.498461],[-122.724669,45.498315],[-122.725478,45.4982],[-122.725793,45.498217],[-122.726143,45.498286],[-122.726457,45.498288],[-122.726964,45.498194],[-122.727984,45.497938],[-122.729124,45.497962],[-122.729747,45.498391],[-122.729747,45.500762],[-122.730313,45.500827],[-122.730318,45.500964],[-122.731131,45.500964],[-122.731144,45.50043],[-122.732261,45.500439],[-122.732265,45.500545],[-122.732949,45.500555],[-122.732951,45.500928],[-122.733581,45.500939],[-122.733589,45.502653],[-122.734178,45.502436],[-122.73425,45.502625],[-122.734327,45.502662],[-122.734523,45.502681],[-122.735768,45.501163],[-122.736593,45.50117],[-122.73522,45.502774],[-122.736137,45.503221],[-122.736118,45.503313],[-122.735868,45.503585],[-122.73546,45.503692],[-122.735333,45.503778],[-122.735119,45.504156],[-122.735047,45.504561],[-122.736209,45.504599],[-122.736424,45.50426],[-122.736643,45.504012],[-122.737818,45.503226],[-122.737819,45.50296],[-122.73828,45.502836],[-122.738582,45.502487],[-122.738239,45.502006],[-122.738412,45.501691],[-122.738721,45.501547],[-122.738721,45.492996],[-122.740467,45.492992],[-122.743848,45.493543],[-122.74386,45.498002],[-122.746399,45.498043],[-122.746407,45.497967],[-122.746996,45.498062],[-122.747027,45.498008],[-122.747709,45.497995],[-122.747701,45.498071],[-122.750381,45.498118],[-122.750479,45.498123],[-122.750693,45.498333],[-122.750986,45.49835],[-122.751039,45.498013],[-122.751443,45.498105],[-122.751985,45.498391],[-122.752896,45.498686],[-122.753321,45.498151],[-122.753935,45.498338],[-122.754134,45.498166],[-122.754992,45.49818],[-122.755199,45.498221],[-122.756056,45.498242],[-122.757412,45.498246],[-122.757357,45.497638],[-122.757845,45.497643],[-122.757835,45.498246],[-122.758345,45.498274],[-122.758363,45.497587],[-122.759042,45.497764],[-122.760244,45.498305],[-122.761087,45.498517],[-122.762701,45.498188],[-122.763865,45.498279],[-122.763921,45.500953],[-122.76466,45.501007],[-122.764669,45.501823],[-122.764333,45.501829],[-122.764272,45.501937],[-122.764334,45.502165],[-122.764638,45.502166],[-122.764631,45.50257],[-122.764191,45.502678],[-122.764296,45.502867],[-122.76428,45.50507],[-122.764486,45.505081],[-122.764488,45.505408],[-122.764405,45.506088],[-122.761288,45.505967],[-122.759162,45.505948],[-122.758317,45.50598],[-122.758323,45.507908],[-122.751091,45.507928],[-122.751087,45.508416],[-122.747293,45.508453],[-122.747323,45.508681],[-122.746608,45.50871],[-122.746404,45.508455],[-122.746035,45.508462],[-122.745751,45.508117],[-122.745106,45.508274],[-122.745202,45.51235],[-122.743857,45.512323],[-122.743853,45.519594],[-122.743821,45.523116],[-122.759312,45.523155],[-122.759315,45.526745],[-122.76206,45.526752],[-122.762046,45.527537],[-122.763163,45.52753],[-122.763139,45.529794],[-122.763465,45.529803],[-122.76344,45.531191],[-122.764417,45.531202],[-122.764413,45.531377],[-122.766019,45.531376],[-122.766025,45.533868],[-122.774713,45.533818],[-122.774734,45.530312],[-122.779889,45.530347],[-122.779792,45.532102],[-122.779762,45.533916],[-122.784843,45.534013],[-122.784739,45.539305],[-122.784711,45.542324],[-122.782367,45.542325],[-122.783423,45.543577],[-122.782761,45.543849],[-122.782426,45.543604],[-122.782108,45.544083],[-122.77956,45.542426],[-122.780495,45.545357],[-122.780807,45.546159],[-122.780179,45.546187],[-122.777312,45.544689],[-122.776809,45.545171],[-122.778414,45.546008],[-122.778329,45.54838],[-122.784701,45.548421],[-122.784704,45.555715],[-122.805369,45.555683],[-122.80536,45.562886],[-122.817806,45.563039],[-122.820323,45.562988],[-122.825809,45.563049],[-122.825771,45.565171],[-122.826025,45.577502],[-122.83634,45.577456],[-122.841447,45.57748],[-122.846663,45.577576],[-122.846502,45.58465],[-122.846561,45.591906],[-122.867255,45.591901],[-122.867212,45.606267],[-122.877532,45.60618],[-122.887626,45.606394],[-122.887578,45.620519],[-122.908531,45.620743],[-122.908859,45.627918],[-122.908848,45.635213],[-122.918442,45.635361],[-122.928713,45.63527],[-122.92885,45.649744],[-122.928868,45.653],[-122.928845,45.653075],[-122.928838,45.656946],[-122.928947,45.671383],[-122.919057,45.671279],[-122.919321,45.672985],[-122.918931,45.673719],[-122.918534,45.678342],[-122.928793,45.678401],[-122.928959,45.692912],[-122.918856,45.692868],[-122.90864,45.692658],[-122.888087,45.6925],[-122.888134,45.696444],[-122.88811,45.6965],[-122.888208,45.703327],[-122.888183,45.706881],[-122.882962,45.706936],[-122.877971,45.706818],[-122.872988,45.706848],[-122.872433,45.706897],[-122.871535,45.702264],[-122.871452,45.700424],[-122.871017,45.698423],[-122.870859,45.697273],[-122.870963,45.694871],[-122.871226,45.694251],[-122.871466,45.693092],[-122.871492,45.692496],[-122.868122,45.692437],[-122.867957,45.691696],[-122.867508,45.69057],[-122.866416,45.686909],[-122.866024,45.684685],[-122.866047,45.681651],[-122.867198,45.678389],[-122.867667,45.676444],[-122.867452,45.675779],[-122.866664,45.674754],[-122.865984,45.673782],[-122.862451,45.671827],[-122.860406,45.670549],[-122.858718,45.668947],[-122.857681,45.667089],[-122.856836,45.665972],[-122.856178,45.664907],[-122.85478,45.663857],[-122.851171,45.661364],[-122.849019,45.660032],[-122.847702,45.659018],[-122.844639,45.65629],[-122.842436,45.654419],[-122.840508,45.653362],[-122.835486,45.651828],[-122.832174,45.650613],[-122.829074,45.649393],[-122.827132,45.648019],[-122.825777,45.646726],[-122.824878,45.645554],[-122.824077,45.644212],[-122.823248,45.642257],[-122.822942,45.641313],[-122.82295,45.64188]]]]}},{"type":"Feature","properties":{"name":"McDaniel High School","school_label":"McDaniel High School Spanish Immersion, Vietnamese Immersion","cluster":"McDaniel","level":"9-12","area_sqmi":10.13},"geometry":{"type":"MultiPolygon","coordinates":[[[[-122.596217,45.578695],[-122.595707,45.577127],[-122.588434,45.577168],[-122.575079,45.577143],[-122.575094,45.573424],[-122.573672,45.573427],[-122.565384,45.573302],[-122.565395,45.56975],[-122.56672,45.569764],[-122.56707,45.568561],[-122.567285,45.568512],[-122.56785,45.568532],[-122.567929,45.567006],[-122.567969,45.562738],[-122.578279,45.562689],[-122.578485,45.552762],[-122.575807,45.552849],[-122.575846,45.55111],[-122.578505,45.551116],[-122.578532,45.549987],[-122.569404,45.549962],[-122.56937,45.552813],[-122.569143,45.552817],[-122.568061,45.5526],[-122.568066,45.55212],[-122.565788,45.551178],[-122.565313,45.550919],[-122.563562,45.549526],[-122.563029,45.549162],[-122.562869,45.548936],[-122.562832,45.548777],[-122.562889,45.548555],[-122.563077,45.548346],[-122.563194,45.548275],[-122.563484,45.548178],[-122.563831,45.548172],[-122.564322,45.548232],[-122.564527,45.548205],[-122.564731,45.548133],[-122.567238,45.548141],[-122.567445,45.547871],[-122.567516,45.547709],[-122.567631,45.547258],[-122.568147,45.546471],[-122.568217,45.546287],[-122.568323,45.546209],[-122.568373,45.546109],[-122.568381,45.546025],[-122.568252,45.54541],[-122.568298,45.544845],[-122.568146,45.544512],[-122.562948,45.544499],[-122.562996,45.542387],[-122.559512,45.542366],[-122.559578,45.54206],[-122.559652,45.541342],[-122.559944,45.538098],[-122.560184,45.537164],[-122.560354,45.536757],[-122.560765,45.536071],[-122.561108,45.5356],[-122.561893,45.534763],[-122.562337,45.534412],[-122.563782,45.533525],[-122.568413,45.533479],[-122.568588,45.522586],[-122.567362,45.522585],[-122.567404,45.520275],[-122.567794,45.520283],[-122.567977,45.520226],[-122.567995,45.520119],[-122.568624,45.520123],[-122.568653,45.5184],[-122.564434,45.518415],[-122.564405,45.514026],[-122.563646,45.514017],[-122.563741,45.51105],[-122.563786,45.507536],[-122.567268,45.507572],[-122.567282,45.504463],[-122.552929,45.504256],[-122.552963,45.50203],[-122.55305,45.502028],[-122.553068,45.499658],[-122.558176,45.499673],[-122.558218,45.49705],[-122.563815,45.497132],[-122.563822,45.496393],[-122.564452,45.496412],[-122.56471,45.495379],[-122.564897,45.493546],[-122.56339,45.493543],[-122.560613,45.493478],[-122.560631,45.493379],[-122.560825,45.493025],[-122.560832,45.491615],[-122.558293,45.491546],[-122.558321,45.489808],[-122.5666,45.490017],[-122.571405,45.490091],[-122.573901,45.490167],[-122.574944,45.490263],[-122.576776,45.490252],[-122.576768,45.490977],[-122.576798,45.491525],[-122.578619,45.49153],[-122.578767,45.491428],[-122.578642,45.500523],[-122.578594,45.511247],[-122.578672,45.513532],[-122.578971,45.519151],[-122.588561,45.519221],[-122.588477,45.519283],[-122.588466,45.519916],[-122.58856,45.520135],[-122.588551,45.520196],[-122.588499,45.520258],[-122.58837,45.520291],[-122.58811,45.520288],[-122.587982,45.520367],[-122.589792,45.521264],[-122.590806,45.521733],[-122.591531,45.522002],[-122.591851,45.522171],[-122.591832,45.524153],[-122.592363,45.524151],[-122.592351,45.525378],[-122.59336,45.525383],[-122.593355,45.526488],[-122.596989,45.52649],[-122.596985,45.528296],[-122.596378,45.528285],[-122.596286,45.531944],[-122.603064,45.528414],[-122.603705,45.52812],[-122.604208,45.527928],[-122.604702,45.527781],[-122.605038,45.5284],[-122.605033,45.53013],[-122.604988,45.530406],[-122.604954,45.531931],[-122.604887,45.532199],[-122.604864,45.533731],[-122.614868,45.533783],[-122.614835,45.541603],[-122.613815,45.541599],[-122.613567,45.541642],[-122.613353,45.541737],[-122.61292,45.541753],[-122.612408,45.541694],[-122.611828,45.541567],[-122.611535,45.541573],[-122.611128,45.54171],[-122.610821,45.541929],[-122.610803,45.541738],[-122.610709,45.541512],[-122.610509,45.54137],[-122.610279,45.541329],[-122.607512,45.541311],[-122.607513,45.541029],[-122.604419,45.54226],[-122.604457,45.542419],[-122.604387,45.548258],[-122.609467,45.548287],[-122.609513,45.548377],[-122.609455,45.548561],[-122.608599,45.549248],[-122.608516,45.549341],[-122.608324,45.549756],[-122.608441,45.550013],[-122.608448,45.550219],[-122.608927,45.550576],[-122.609115,45.550664],[-122.609487,45.550748],[-122.609481,45.551541],[-122.609512,45.551792],[-122.612073,45.551798],[-122.612087,45.551882],[-122.614779,45.551901],[-122.614729,45.555468],[-122.614691,45.555629],[-122.614637,45.559098],[-122.614698,45.55928],[-122.614684,45.560438],[-122.614043,45.560435],[-122.613994,45.562791],[-122.619998,45.562825],[-122.627432,45.562763],[-122.627428,45.563907],[-122.62428,45.563912],[-122.624279,45.564506],[-122.624361,45.564672],[-122.624344,45.565122],[-122.624455,45.565204],[-122.624454,45.566416],[-122.624194,45.566421],[-122.62419,45.568197],[-122.624313,45.568278],[-122.62432,45.570046],[-122.624581,45.570057],[-122.624583,45.57136],[-122.624137,45.571665],[-122.624179,45.575041],[-122.623274,45.575248],[-122.622055,45.575461],[-122.622022,45.577641],[-122.620212,45.578666],[-122.620211,45.584587],[-122.62009,45.589239],[-122.619359,45.589153],[-122.618787,45.588615],[-122.618279,45.588388],[-122.617363,45.58826],[-122.616615,45.588289],[-122.61514,45.588659],[-122.615042,45.588661],[-122.615063,45.579858],[-122.613988,45.579863],[-122.612716,45.580755],[-122.611447,45.579864],[-122.60477,45.579864],[-122.602314,45.57885],[-122.59942,45.578057],[-122.598042,45.578082],[-122.596217,45.578695]],[[-122.562996,45.542387],[-122.564667,45.542388],[-122.564703,45.540878],[-122.563,45.540878],[-122.562996,45.542387]]],[[[-122.596217,45.578695],[-122.597423,45.579968],[-122.595696,45.579962],[-122.596217,45.578695]]]]}},{"type":"Feature","properties":{"name":"Roosevelt High School","school_label":"Roosevelt High School Spanish Immersion","cluster":"Roosevelt","level":"9-12","area_sqmi":7.65},"geometry":{"type":"MultiPolygon","coordinates":[[[[-122.746049,45.607605],[-122.744472,45.607574],[-122.743495,45.607296],[-122.740967,45.607094],[-122.740442,45.606998],[-122.7402,45.606911],[-122.739736,45.606699],[-122.739301,45.606403],[-122.738976,45.606119],[-122.737973,45.605133],[-122.737035,45.604435],[-122.73647,45.604141],[-122.735975,45.603983],[-122.734236,45.603651],[-122.73051,45.60335],[-122.730127,45.603296],[-122.729413,45.603066],[-122.728146,45.602298],[-122.727249,45.601812],[-122.726851,45.601637],[-122.726346,45.601479],[-122.725908,45.601374],[-122.725296,45.601279],[-122.724435,45.601219],[-122.723034,45.601201],[-122.721323,45.601051],[-122.720885,45.600953],[-122.719183,45.60046],[-122.718984,45.600372],[-122.717352,45.59939],[-122.714792,45.597702],[-122.713105,45.596713],[-122.712455,45.596459],[-122.710005,45.596003],[-122.708039,45.595385],[-122.706994,45.595024],[-122.705854,45.594741],[-122.704777,45.594686],[-122.703552,45.59474],[-122.702429,45.594632],[-122.699972,45.59397],[-122.696269,45.592783],[-122.69068,45.590787],[-122.689677,45.590379],[-122.688152,45.589943],[-122.685331,45.589418],[-122.684295,45.588972],[-122.683237,45.588566],[-122.682362,45.588377],[-122.680904,45.588305],[-122.679017,45.584119],[-122.678713,45.583202],[-122.678596,45.582671],[-122.678483,45.581644],[-122.678467,45.579975],[-122.678532,45.577231],[-122.681992,45.57715],[-122.685043,45.577137],[-122.702568,45.577145],[-122.702618,45.577045],[-122.702621,45.573212],[-122.703629,45.573771],[-122.704652,45.574148],[-122.705673,45.574441],[-122.707766,45.574972],[-122.708846,45.575119],[-122.71199,45.575295],[-122.714086,45.575315],[-122.717949,45.574646],[-122.718648,45.57448],[-122.72002,45.573997],[-122.721237,45.573409],[-122.721091,45.573282],[-122.721259,45.573127],[-122.72163,45.572868],[-122.723864,45.570729],[-122.731297,45.566194],[-122.735479,45.569802],[-122.738528,45.572128],[-122.74557,45.576716],[-122.749556,45.578802],[-122.754861,45.580733],[-122.759967,45.582546],[-122.76395,45.584815],[-122.768106,45.588216],[-122.772462,45.592017],[-122.777661,45.598026],[-122.779998,45.601235],[-122.782549,45.604659],[-122.783048,45.605511],[-122.780872,45.605722],[-122.779261,45.605921],[-122.779067,45.605971],[-122.778481,45.605982],[-122.776387,45.606344],[-122.775065,45.606424],[-122.7677,45.60644],[-122.76709,45.606688],[-122.766338,45.606909],[-122.766303,45.606848],[-122.765753,45.606958],[-122.765037,45.606995],[-122.763971,45.606948],[-122.763053,45.606791],[-122.762394,45.606605],[-122.760058,45.605729],[-122.759085,45.605558],[-122.7583,45.605474],[-122.757262,45.605601],[-122.754899,45.606052],[-122.754685,45.606124],[-122.755701,45.606585],[-122.755502,45.606779],[-122.755395,45.606819],[-122.75483,45.606823],[-122.75472,45.606794],[-122.75589,45.608753],[-122.753506,45.61037],[-122.752182,45.609817],[-122.751698,45.609666],[-122.751184,45.609562],[-122.749689,45.609385],[-122.748943,45.609209],[-122.74838,45.608961],[-122.747286,45.608175],[-122.747042,45.608035],[-122.746049,45.607605]]]]}},{"type":"Feature","properties":{"name":"Wells-Barnett High School","school_label":"Wells-Barnett High School","cluster":"Wells-Barnett","level":"9-12","area_sqmi":15.57},"geometry":{"type":"MultiPolygon","coordinates":[[[[-122.736593,45.50117],[-122.735768,45.501163],[-122.734523,45.502681],[-122.734327,45.502662],[-122.73425,45.502625],[-122.734178,45.502436],[-122.733589,45.502653],[-122.733581,45.500939],[-122.732951,45.500928],[-122.732949,45.500555],[-122.732265,45.500545],[-122.732261,45.500439],[-122.731144,45.50043],[-122.731131,45.500964],[-122.730318,45.500964],[-122.730313,45.500827],[-122.729725,45.500762],[-122.729736,45.498392],[-122.729102,45.497962],[-122.727974,45.497946],[-122.726436,45.498288],[-122.726132,45.498286],[-122.725609,45.498205],[-122.725101,45.498246],[-122.724648,45.498323],[-122.724198,45.498461],[-122.722894,45.498997],[-122.722447,45.499212],[-122.720551,45.498974],[-122.720281,45.498987],[-122.719614,45.499137],[-122.719122,45.499307],[-122.718378,45.499725],[-122.718178,45.499896],[-122.717941,45.500229],[-122.717781,45.500316],[-122.717552,45.500282],[-122.717122,45.500092],[-122.717002,45.500072],[-122.716785,45.500061],[-122.716485,45.500165],[-122.71491,45.500973],[-122.714203,45.501498],[-122.71362,45.501882],[-122.71323,45.502195],[-122.712115,45.501645],[-122.71182,45.501574],[-122.711288,45.501554],[-122.711021,45.501369],[-122.710881,45.501112],[-122.710974,45.500981],[-122.710963,45.500074],[-122.711025,45.499699],[-122.711004,45.49941],[-122.710656,45.498487],[-122.710241,45.497817],[-122.70999,45.497471],[-122.70909,45.496871],[-122.708642,45.496468],[-122.708167,45.496233],[-122.707414,45.496095],[-122.706903,45.496044],[-122.706263,45.496034],[-122.706054,45.495946],[-122.705975,45.495879],[-122.705961,45.495773],[-122.705991,45.495711],[-122.706095,45.495595],[-122.706244,45.495508],[-122.706743,45.494912],[-122.706762,45.494858],[-122.706703,45.494714],[-122.706559,45.494641],[-122.706004,45.494575],[-122.705614,45.494583],[-122.704894,45.494749],[-122.70459,45.494747],[-122.704399,45.494576],[-122.704328,45.494402],[-122.704405,45.494126],[-122.704401,45.494027],[-122.704342,45.493898],[-122.704188,45.493825],[-122.703732,45.493811],[-122.703578,45.493761],[-122.703522,45.493708],[-122.703475,45.493602],[-122.703576,45.493097],[-122.703571,45.49296],[-122.703153,45.492496],[-122.702986,45.49237],[-122.70258,45.492225],[-122.702264,45.492193],[-122.70207,45.492204],[-122.701212,45.492465],[-122.700821,45.492464],[-122.700744,45.492413],[-122.700676,45.492345],[-122.700594,45.492172],[-122.700609,45.491988],[-122.700746,45.491589],[-122.700729,45.491399],[-122.700583,45.491257],[-122.699958,45.491071],[-122.699721,45.490809],[-122.699583,45.49059],[-122.699549,45.490263],[-122.699512,45.490142],[-122.699433,45.490037],[-122.699332,45.489947],[-122.699156,45.489875],[-122.698916,45.489826],[-122.698575,45.48971],[-122.698465,45.489644],[-122.698396,45.489539],[-122.698346,45.489357],[-122.695061,45.489343],[-122.695055,45.489481],[-122.694807,45.489524],[-122.694396,45.489562],[-122.693486,45.489564],[-122.69163,45.489508],[-122.691264,45.489279],[-122.691042,45.489428],[-122.690541,45.489384],[-122.690158,45.490489],[-122.684713,45.490402],[-122.684727,45.489571],[-122.682242,45.48952],[-122.681715,45.489934],[-122.681256,45.490148],[-122.680365,45.490394],[-122.679257,45.490636],[-122.678519,45.490894],[-122.678051,45.491169],[-122.677577,45.491552],[-122.677306,45.491847],[-122.67706,45.49224],[-122.676962,45.492532],[-122.676899,45.492891],[-122.676924,45.493294],[-122.677254,45.494645],[-122.677498,45.495097],[-122.677896,45.495616],[-122.67811,45.49584],[-122.678372,45.496216],[-122.679752,45.498728],[-122.680179,45.499444],[-122.68053,45.500162],[-122.67887,45.50014],[-122.678837,45.500422],[-122.678701,45.500859],[-122.678677,45.500486],[-122.678615,45.500289],[-122.678513,45.500162],[-122.678446,45.500094],[-122.678247,45.500007],[-122.677801,45.499947],[-122.677575,45.500004],[-122.677558,45.500119],[-122.676793,45.500271],[-122.671464,45.500722],[-122.665419,45.50118],[-122.665461,45.500234],[-122.666556,45.49596],[-122.669255,45.489522],[-122.669789,45.485953],[-122.669563,45.482322],[-122.669085,45.480463],[-122.667973,45.478762],[-122.666566,45.477287],[-122.665989,45.47569],[-122.666401,45.472938],[-122.666557,45.468469],[-122.666018,45.465514],[-122.66533,45.46353],[-122.664997,45.462996],[-122.664608,45.461502],[-122.674578,45.461526],[-122.674976,45.452921],[-122.672938,45.451359],[-122.672757,45.451149],[-122.672686,45.450975],[-122.67285,45.447055],[-122.672893,45.446749],[-122.673588,45.432803],[-122.70223,45.43298],[-122.702374,45.432787],[-122.702601,45.432173],[-122.703973,45.432367],[-122.704204,45.432469],[-122.704428,45.432686],[-122.704716,45.432856],[-122.705856,45.433246],[-122.707214,45.433646],[-122.707626,45.433669],[-122.707927,45.43361],[-122.708162,45.433514],[-122.708491,45.433324],[-122.708945,45.433598],[-122.70933,45.43375],[-122.709592,45.433829],[-122.710268,45.433953],[-122.710962,45.433963],[-122.711512,45.433914],[-122.712305,45.433677],[-122.712617,45.433618],[-122.712888,45.433621],[-122.713378,45.433695],[-122.713763,45.433855],[-122.71434,45.434233],[-122.715263,45.434588],[-122.715661,45.434824],[-122.716417,45.434162],[-122.71662,45.433807],[-122.716595,45.433716],[-122.716232,45.433251],[-122.716139,45.433077],[-122.719487,45.433112],[-122.719691,45.43246],[-122.719679,45.432148],[-122.719585,45.431936],[-122.719315,45.431667],[-122.718348,45.430977],[-122.718657,45.430834],[-122.718797,45.430808],[-122.719221,45.430868],[-122.719715,45.431049],[-122.720134,45.431262],[-122.720401,45.431455],[-122.720952,45.432001],[-122.722198,45.433509],[-122.722553,45.433746],[-122.722718,45.433819],[-122.723079,45.433911],[-122.724602,45.434079],[-122.725448,45.434436],[-122.725852,45.43452],[-122.726264,45.43452],[-122.726608,45.43446],[-122.730044,45.433341],[-122.730516,45.433217],[-122.733634,45.433187],[-122.736105,45.43323],[-122.743959,45.433282],[-122.743816,45.45266],[-122.743821,45.460145],[-122.743756,45.475161],[-122.745046,45.475174],[-122.745062,45.475311],[-122.745055,45.475418],[-122.744893,45.475421],[-122.744884,45.475482],[-122.744612,45.475731],[-122.74447,45.475711],[-122.744383,45.475416],[-122.743949,45.475401],[-122.743948,45.475958],[-122.743731,45.475954],[-122.743777,45.476914],[-122.74378,45.482584],[-122.743831,45.488681],[-122.744215,45.488795],[-122.743957,45.489151],[-122.743837,45.489123],[-122.743845,45.491409],[-122.743642,45.491489],[-122.743703,45.491679],[-122.744044,45.491794],[-122.74385,45.492118],[-122.743848,45.493543],[-122.740467,45.492992],[-122.738721,45.492996],[-122.738721,45.501547],[-122.738412,45.501691],[-122.738239,45.502006],[-122.738582,45.502487],[-122.73828,45.502836],[-122.737819,45.50296],[-122.737818,45.503226],[-122.736643,45.504012],[-122.736424,45.50426],[-122.736209,45.504599],[-122.735047,45.504561],[-122.735119,45.504156],[-122.735333,45.503778],[-122.73546,45.503692],[-122.735868,45.503585],[-122.736118,45.503313],[-122.736137,45.503221],[-122.73522,45.502774],[-122.736593,45.50117]]]]}}]}